<?xml version='1.0' encoding='utf-8'?>
<q:quakeml xmlns:q="http://quakeml.org/xmlns/quakeml/1.2" xmlns="http://quakeml.org/xmlns/bed/1.2">
  <eventParameters publicID="smi:local/ec714e35-7904-4c50-a687-e53111865054">
    <event publicID="smi:nz.org.geonet/2015p822263">
      <preferredOriginID>smi:nz.org.geonet/NLL.20151111080955.951028.41831</preferredOriginID>
      <preferredMagnitudeID>smi:nz.org.geonet/NLL.20151111080955.951028.41831#netMag.M</preferredMagnitudeID>
      <type>earthquake</type>
      <creationInfo>
        <agencyID>WEL(GNS_Primary)</agencyID>
        <author>scevent@akeqp01.geonet.org.nz</author>
        <creationTime>2015-11-01T05:42:31.314987Z</creationTime>
      </creationInfo>
      <origin publicID="smi:nz.org.geonet/NLL.20151111080955.951028.41831">
        <time>
          <value>2015-11-01T05:42:11.671776Z</value>
        </time>
        <latitude>
          <value>-39.38937453</value>
          <uncertainty>2.373596787</uncertainty>
        </latitude>
        <longitude>
          <value>175.9597209</value>
          <uncertainty>2.413793424</uncertainty>
        </longitude>
        <depth>
          <value>54921.875</value>
          <uncertainty>3781.082756</uncertainty>
        </depth>
        <methodID>smi:nz.org.geonet/NonLinLoc</methodID>
        <earthModelID>smi:nz.org.geonet/nz3drx</earthModelID>
        <quality>
          <associatedPhaseCount>171</associatedPhaseCount>
          <usedPhaseCount>115</usedPhaseCount>
          <usedStationCount>102</usedStationCount>
          <standardError>0.4636654011</standardError>
          <azimuthalGap>31.79499738</azimuthalGap>
          <secondaryAzimuthalGap>50.72868501</secondaryAzimuthalGap>
          <groundTruthLevel>-</groundTruthLevel>
          <minimumDistance>0.1614526833</minimumDistance>
          <maximumDistance>1.696994547</maximumDistance>
          <medianDistance>1.006256036</medianDistance>
        </quality>
        <evaluationMode>manual</evaluationMode>
        <evaluationStatus>confirmed</evaluationStatus>
        <creationInfo>
          <agencyID>WEL(GNS_Primary)</agencyID>
          <author>ashenden@akeqx01.geonet.org.nz</author>
          <creationTime>2015-11-11T08:10:19.879229Z</creationTime>
        </creationInfo>
        <originUncertainty>
          <horizontalUncertainty>3.720039489</horizontalUncertainty>
          <minHorizontalUncertainty>3.538380297</minHorizontalUncertainty>
          <maxHorizontalUncertainty>3.720039489</maxHorizontalUncertainty>
          <azimuthMaxHorizontalUncertainty>54.80674604</azimuthMaxHorizontalUncertainty>
          <confidenceEllipsoid>
            <semiMajorAxisLength>7.536483368</semiMajorAxisLength>
            <semiMinorAxisLength>3.859878576</semiMinorAxisLength>
            <semiIntermediateAxisLength>4.384607106</semiIntermediateAxisLength>
            <majorAxisPlunge>157.1233963</majorAxisPlunge>
            <majorAxisAzimuth>-1.720120803</majorAxisAzimuth>
            <majorAxisRotation>67.13241246</majorAxisRotation>
          </confidenceEllipsoid>
        </originUncertainty>
        <arrival publicID="smi:nz.org.geonet/20151101.054220.08-AIC-NZ.MOVZ.10.EHZ#NLL.20151111080955.951028.41831">
          <pickID>smi:nz.org.geonet/20151101.054220.08-AIC-NZ.MOVZ.10.EHZ</pickID>
          <phase>P</phase>
          <timeCorrection>0.0</timeCorrection>
          <azimuth>263.1981841</azimuth>
          <distance>0.1614526833</distance>
          <timeResidual>-0.5562322998</timeResidual>
          <timeWeight>1.247667983</timeWeight>
        </arrival>
        <arrival publicID="smi:nz.org.geonet/Pick#20151111080935.546004.41818#NLL.20151111080955.951028.41831">
          <pickID>smi:nz.org.geonet/Pick#20151111080935.546004.41818</pickID>
          <phase>S</phase>
          <timeCorrection>0.0</timeCorrection>
          <azimuth>263.1981841</azimuth>
          <distance>0.1614526833</distance>
          <timeResidual>-0.6747613327</timeResidual>
          <timeWeight>1.040800048</timeWeight>
        </arrival>
        <arrival publicID="smi:nz.org.geonet/20151101.054221.26-AIC-NZ.TUVZ.10.EHZ#NLL.20151111080955.951028.41831">
          <pickID>smi:nz.org.geonet/20151101.054221.26-AIC-NZ.TUVZ.10.EHZ</pickID>
          <phase>P</phase>
          <timeCorrection>0.0</timeCorrection>
          <azimuth>297.2690617</azimuth>
          <distance>0.2618047442</distance>
          <timeResidual>0.02673419952</timeResidual>
          <timeWeight>1.286430456</timeWeight>
        </arrival>
        <arrival publicID="smi:nz.org.geonet/Pick#20151101055106.062792.28338#NLL.20151111080955.951028.41831">
          <pickID>smi:nz.org.geonet/Pick#20151101055106.062792.28338</pickID>
          <phase>S</phase>
          <timeCorrection>0.0</timeCorrection>
          <azimuth>297.2690617</azimuth>
          <distance>0.2618047442</distance>
          <timeResidual>0.8454362213</timeResidual>
          <timeWeight>0.9840641533</timeWeight>
        </arrival>
        <arrival publicID="smi:nz.org.geonet/20151101.054221.23-AIC-NZ.WNVZ.11.EHZ#NLL.20151111080955.951028.41831">
          <pickID>smi:nz.org.geonet/20151101.054221.23-AIC-NZ.WNVZ.11.EHZ</pickID>
          <phase>P</phase>
          <timeCorrection>0.0</timeCorrection>
          <azimuth>282.3200374</azimuth>
          <distance>0.2843044509</distance>
          <timeResidual>-0.2060303116</timeResidual>
          <timeWeight>1.272186114</timeWeight>
        </arrival>
        <arrival publicID="smi:nz.org.geonet/Pick#20151111080935.546397.41819#NLL.20151111080955.951028.41831">
          <pickID>smi:nz.org.geonet/Pick#20151111080935.546397.41819</pickID>
          <phase>S</phase>
          <timeCorrection>0.0</timeCorrection>
          <azimuth>282.3200374</azimuth>
          <distance>0.2843044509</distance>
          <timeResidual>0.5381421112</timeResidual>
          <timeWeight>1.013546544</timeWeight>
        </arrival>
        <arrival publicID="smi:nz.org.geonet/20151101.054221.53-AIC-NZ.WHVZ.10.HHZ#NLL.20151111080955.951028.41831">
          <pickID>smi:nz.org.geonet/20151101.054221.53-AIC-NZ.WHVZ.10.HHZ</pickID>
          <phase>P</phase>
          <timeCorrection>0.0</timeCorrection>
          <azimuth>290.6588317</azimuth>
          <distance>0.3028706525</distance>
          <timeResidual>-0.04650095215</timeResidual>
          <timeWeight>1.274365498</timeWeight>
        </arrival>
        <arrival publicID="smi:nz.org.geonet/Pick#20151101055106.062924.28339#NLL.20151111080955.951028.41831">
          <pickID>smi:nz.org.geonet/Pick#20151101055106.062924.28339</pickID>
          <phase>S</phase>
          <timeCorrection>0.0</timeCorrection>
          <azimuth>290.6588317</azimuth>
          <distance>0.3028706525</distance>
          <timeResidual>0.4989428986</timeResidual>
          <timeWeight>1.010512989</timeWeight>
        </arrival>
        <arrival publicID="smi:nz.org.geonet/20151101.054221.71-AIC-NZ.ETVZ.10.HHZ#NLL.20151111080955.951028.41831">
          <pickID>smi:nz.org.geonet/20151101.054221.71-AIC-NZ.ETVZ.10.HHZ</pickID>
          <phase>P</phase>
          <timeCorrection>0.0</timeCorrection>
          <azimuth>323.9523297</azimuth>
          <distance>0.3136871693</distance>
          <timeResidual>0.07460827332</timeResidual>
          <timeWeight>1.27153553</timeWeight>
        </arrival>
        <arrival publicID="smi:nz.org.geonet/Pick#20151101055106.06313.28341#NLL.20151111080955.951028.41831">
          <pickID>smi:nz.org.geonet/Pick#20151101055106.06313.28341</pickID>
          <phase>S</phase>
          <timeCorrection>0.0</timeCorrection>
          <azimuth>323.9523297</azimuth>
          <distance>0.3136871693</distance>
          <timeResidual>0.7413269531</timeResidual>
          <timeWeight>0.9815180113</timeWeight>
        </arrival>
        <arrival publicID="smi:nz.org.geonet/20151101.054221.78-AIC-NZ.OTVZ.10.HHZ#NLL.20151111080955.951028.41831">
          <pickID>smi:nz.org.geonet/20151101.054221.78-AIC-NZ.OTVZ.10.HHZ</pickID>
          <phase>P</phase>
          <timeCorrection>0.0</timeCorrection>
          <azimuth>315.4254273</azimuth>
          <distance>0.3150619768</distance>
          <timeResidual>0.1591746948</timeResidual>
          <timeWeight>1.268183671</timeWeight>
        </arrival>
        <arrival publicID="smi:nz.org.geonet/Pick#20151101055106.063245.28342#NLL.20151111080955.951028.41831">
          <pickID>smi:nz.org.geonet/Pick#20151101055106.063245.28342</pickID>
          <phase>S</phase>
          <timeCorrection>0.0</timeCorrection>
          <azimuth>315.4254273</azimuth>
          <distance>0.3150619768</distance>
          <timeResidual>0.9993132202</timeResidual>
          <timeWeight>0.9443004805</timeWeight>
        </arrival>
        <arrival publicID="smi:nz.org.geonet/20151101.054221.73-AIC-NZ.SNVZ.10.EHZ#NLL.20151111080955.951028.41831">
          <pickID>smi:nz.org.geonet/20151101.054221.73-AIC-NZ.SNVZ.10.EHZ</pickID>
          <phase>P</phase>
          <timeCorrection>0.0</timeCorrection>
          <azimuth>310.1127232</azimuth>
          <distance>0.3152828274</distance>
          <timeResidual>0.115891423</timeResidual>
          <timeWeight>1.270719964</timeWeight>
        </arrival>
        <arrival publicID="smi:nz.org.geonet/20151101.054221.74-AIC-NZ.MAVZ.10.HHZ#NLL.20151111080955.951028.41831">
          <pickID>smi:nz.org.geonet/20151101.054221.74-AIC-NZ.MAVZ.10.HHZ</pickID>
          <phase>P</phase>
          <timeCorrection>0.0</timeCorrection>
          <azimuth>291.7851368</azimuth>
          <distance>0.3272483802</distance>
          <timeResidual>-0.03270309448</timeResidual>
          <timeWeight>1.267669386</timeWeight>
        </arrival>
        <arrival publicID="smi:nz.org.geonet/20151101.054221.73-AIC-NZ.TRVZ.10.HHZ#NLL.20151111080955.951028.41831">
          <pickID>smi:nz.org.geonet/20151101.054221.73-AIC-NZ.TRVZ.10.HHZ</pickID>
          <phase>P</phase>
          <timeCorrection>0.0</timeCorrection>
          <azimuth>285.7061147</azimuth>
          <distance>0.3278761303</distance>
          <timeResidual>-0.06434101105</timeResidual>
          <timeWeight>1.266446541</timeWeight>
        </arrival>
        <arrival publicID="smi:nz.org.geonet/Pick#20151101055106.063035.28340#NLL.20151111080955.951028.41831">
          <pickID>smi:nz.org.geonet/Pick#20151101055106.063035.28340</pickID>
          <phase>S</phase>
          <timeCorrection>0.0</timeCorrection>
          <azimuth>285.7061147</azimuth>
          <distance>0.3278761303</distance>
          <timeResidual>0.2093069397</timeResidual>
          <timeWeight>1.018553865</timeWeight>
        </arrival>
        <arrival publicID="smi:nz.org.geonet/20151101.054221.91-AIC-NZ.TMVZ.10.HHZ#NLL.20151111080955.951028.41831">
          <pickID>smi:nz.org.geonet/20151101.054221.91-AIC-NZ.TMVZ.10.HHZ</pickID>
          <phase>P</phase>
          <timeCorrection>0.0</timeCorrection>
          <azimuth>325.3157744</azimuth>
          <distance>0.332871913</distance>
          <timeResidual>0.06636069031</timeResidual>
          <timeWeight>1.264406584</timeWeight>
        </arrival>
        <arrival publicID="smi:nz.org.geonet/Pick#20151101055106.063348.28343#NLL.20151111080955.951028.41831">
          <pickID>smi:nz.org.geonet/Pick#20151101055106.063348.28343</pickID>
          <phase>S</phase>
          <timeCorrection>0.0</timeCorrection>
          <azimuth>325.3157744</azimuth>
          <distance>0.332871913</distance>
          <timeResidual>0.5800784088</timeResidual>
          <timeWeight>0.9903182759</timeWeight>
        </arrival>
        <arrival publicID="smi:nz.org.geonet/20151101.054221.85-AIC-NZ.FWVZ.10.HHZ#NLL.20151111080955.951028.41831">
          <pickID>smi:nz.org.geonet/20151101.054221.85-AIC-NZ.FWVZ.10.HHZ</pickID>
          <phase>P</phase>
          <timeCorrection>0.0</timeCorrection>
          <azimuth>293.1307855</azimuth>
          <distance>0.3376729567</distance>
          <timeResidual>-0.03610123291</timeResidual>
          <timeWeight>1.263629124</timeWeight>
        </arrival>
        <arrival publicID="smi:nz.org.geonet/Pick#20151111080935.546533.41820#NLL.20151111080955.951028.41831">
          <pickID>smi:nz.org.geonet/Pick#20151111080935.546533.41820</pickID>
          <phase>S</phase>
          <timeCorrection>0.0</timeCorrection>
          <azimuth>293.1307855</azimuth>
          <distance>0.3376729567</distance>
          <timeResidual>0.3897373413</timeResidual>
          <timeWeight>1.004144247</timeWeight>
        </arrival>
        <arrival publicID="smi:nz.org.geonet/20151101.054222.05-AIC-NZ.NGZ.10.EHZ#NLL.20151111080955.951028.41831">
          <pickID>smi:nz.org.geonet/20151101.054222.05-AIC-NZ.NGZ.10.EHZ</pickID>
          <phase>P</phase>
          <timeCorrection>0.0</timeCorrection>
          <azimuth>308.0308151</azimuth>
          <distance>0.3441616908</distance>
          <timeResidual>0.1694443558</timeResidual>
          <timeWeight>1.258565144</timeWeight>
        </arrival>
        <arrival publicID="smi:nz.org.geonet/20151101.054222.34-AIC-NZ.KWHZ.10.EHZ#NLL.20151111080955.951028.41831">
          <pickID>smi:nz.org.geonet/20151101.054222.34-AIC-NZ.KWHZ.10.EHZ</pickID>
          <phase>P</phase>
          <timeCorrection>0.0</timeCorrection>
          <azimuth>95.54392215</azimuth>
          <distance>0.3583387938</distance>
          <timeResidual>0.2403334808</timeResidual>
          <timeWeight>1.245553938</timeWeight>
        </arrival>
        <arrival publicID="smi:nz.org.geonet/Pick#20151101055106.063443.28344#NLL.20151111080955.951028.41831">
          <pickID>smi:nz.org.geonet/Pick#20151101055106.063443.28344</pickID>
          <phase>S</phase>
          <timeCorrection>0.0</timeCorrection>
          <azimuth>95.54392215</azimuth>
          <distance>0.3583387938</distance>
          <timeResidual>1.821438672</timeResidual>
          <timeWeight>0.7661163755</timeWeight>
        </arrival>
        <arrival publicID="smi:nz.org.geonet/20151101.054222.13-AIC-NZ.NTVZ.10.HHZ#NLL.20151111080955.951028.41831">
          <pickID>smi:nz.org.geonet/20151101.054222.13-AIC-NZ.NTVZ.10.HHZ</pickID>
          <phase>P</phase>
          <timeCorrection>0.0</timeCorrection>
          <azimuth>324.0842783</azimuth>
          <distance>0.3590867829</distance>
          <timeResidual>0.06331535339</timeResidual>
          <timeWeight>1.256583374</timeWeight>
        </arrival>
        <arrival publicID="smi:nz.org.geonet/Pick#20151101055106.063627.28346#NLL.20151111080955.951028.41831">
          <pickID>smi:nz.org.geonet/Pick#20151101055106.063627.28346</pickID>
          <phase>S</phase>
          <timeCorrection>0.0</timeCorrection>
          <azimuth>324.0842783</azimuth>
          <distance>0.3590867829</distance>
          <timeResidual>0.5680305206</timeResidual>
          <timeWeight>0.9810848258</timeWeight>
        </arrival>
        <arrival publicID="smi:nz.org.geonet/20151101.054222.28-AIC-NZ.NNVZ.10.EHZ#NLL.20151111080955.951028.41831">
          <pickID>smi:nz.org.geonet/20151101.054222.28-AIC-NZ.NNVZ.10.EHZ</pickID>
          <phase>P</phase>
          <timeCorrection>0.0</timeCorrection>
          <azimuth>314.8557264</azimuth>
          <distance>0.3652562106</distance>
          <timeResidual>0.2162854813</timeResidual>
          <timeWeight>1.248940258</timeWeight>
        </arrival>
        <arrival publicID="smi:nz.org.geonet/20151101.054222.35-AIC-NZ.KRVZ.10.EHZ#NLL.20151111080955.951028.41831">
          <pickID>smi:nz.org.geonet/20151101.054222.35-AIC-NZ.KRVZ.10.EHZ</pickID>
          <phase>P</phase>
          <timeCorrection>0.0</timeCorrection>
          <azimuth>320.9567095</azimuth>
          <distance>0.3774021398</distance>
          <timeResidual>0.1525475311</timeResidual>
          <timeWeight>1.248416035</timeWeight>
        </arrival>
        <arrival publicID="smi:nz.org.geonet/20151101.054221.98-AIC-NZ.MTVZ.10.EHZ#NLL.20151111080955.951028.41831">
          <pickID>smi:nz.org.geonet/20151101.054221.98-AIC-NZ.MTVZ.10.EHZ</pickID>
          <phase>P</phase>
          <timeCorrection>0.0</timeCorrection>
          <azimuth>270.450382</azimuth>
          <distance>0.3783375098</distance>
          <timeResidual>-0.2928757095</timeResidual>
          <timeWeight>1.236485687</timeWeight>
        </arrival>
        <arrival publicID="smi:nz.org.geonet/Pick#20151101055106.063533.28345#NLL.20151111080955.951028.41831">
          <pickID>smi:nz.org.geonet/Pick#20151101055106.063533.28345</pickID>
          <phase>S</phase>
          <timeCorrection>0.0</timeCorrection>
          <azimuth>270.450382</azimuth>
          <distance>0.3783375098</distance>
          <timeResidual>0.1676467896</timeResidual>
          <timeWeight>0.9962080163</timeWeight>
        </arrival>
        <arrival publicID="smi:nz.org.geonet/20151101.054222.37-AIC-NZ.WTVZ.10.EHZ#NLL.20151111080955.951028.41831">
          <pickID>smi:nz.org.geonet/20151101.054222.37-AIC-NZ.WTVZ.10.EHZ</pickID>
          <phase>P</phase>
          <timeCorrection>0.0</timeCorrection>
          <azimuth>314.4196841</azimuth>
          <distance>0.389080842</distance>
          <timeResidual>0.08602867584</timeResidual>
          <timeWeight>1.248512681</timeWeight>
        </arrival>
        <arrival publicID="smi:nz.org.geonet/20151101.054222.58-AIC-NZ.KRHZ.10.EHZ#NLL.20151111080955.951028.41831">
          <pickID>smi:nz.org.geonet/20151101.054222.58-AIC-NZ.KRHZ.10.EHZ</pickID>
          <phase>P</phase>
          <timeCorrection>0.0</timeCorrection>
          <azimuth>129.7238491</azimuth>
          <distance>0.3997498511</distance>
          <timeResidual>0.2197276688</timeResidual>
          <timeWeight>1.238333588</timeWeight>
        </arrival>
        <arrival publicID="smi:nz.org.geonet/20151101.054222.88-AIC-NZ.RITZ.10.EHZ#NLL.20151111080955.951028.41831">
          <pickID>smi:nz.org.geonet/20151101.054222.88-AIC-NZ.RITZ.10.EHZ</pickID>
          <phase>P</phase>
          <timeCorrection>0.0</timeCorrection>
          <azimuth>350.9093451</azimuth>
          <distance>0.4156142846</distance>
          <timeResidual>0.2343369232</timeResidual>
          <timeWeight>1.2276478</timeWeight>
        </arrival>
        <arrival publicID="smi:nz.org.geonet/20151101.054223.24-AIC-NZ.KATZ.10.EHZ#NLL.20151111080955.951028.41831">
          <pickID>smi:nz.org.geonet/20151101.054223.24-AIC-NZ.KATZ.10.EHZ</pickID>
          <phase>P</phase>
          <timeCorrection>0.0</timeCorrection>
          <azimuth>335.0122178</azimuth>
          <distance>0.4552013779</distance>
          <timeResidual>0.2241528702</timeResidual>
          <timeWeight>1.215584433</timeWeight>
        </arrival>
        <arrival publicID="smi:nz.org.geonet/20151101.054223.13-AIC-NZ.BKZ.10.HHZ#NLL.20151111080955.951028.41831">
          <pickID>smi:nz.org.geonet/20151101.054223.13-AIC-NZ.BKZ.10.HHZ</pickID>
          <phase>P</phase>
          <timeCorrection>0.0</timeCorrection>
          <azimuth>62.13953731</azimuth>
          <distance>0.4749016624</distance>
          <timeResidual>-0.09442333221</timeResidual>
          <timeWeight>1.215914409</timeWeight>
        </arrival>
        <arrival publicID="smi:nz.org.geonet/20151101.054223.18-AIC-NZ.PKVZ.10.EHZ#NLL.20151111080955.951028.41831">
          <pickID>smi:nz.org.geonet/20151101.054223.18-AIC-NZ.PKVZ.10.EHZ</pickID>
          <phase>P</phase>
          <timeCorrection>0.0</timeCorrection>
          <azimuth>281.7788658</azimuth>
          <distance>0.4818146893</distance>
          <timeResidual>-0.1281978989</timeResidual>
          <timeWeight>1.211967629</timeWeight>
        </arrival>
        <arrival publicID="smi:nz.org.geonet/20151101.054223.25-AIC-NZ.TWVZ.10.EHZ#NLL.20151111080955.951028.41831">
          <pickID>smi:nz.org.geonet/20151101.054223.25-AIC-NZ.TWVZ.10.EHZ</pickID>
          <phase>P</phase>
          <timeCorrection>0.0</timeCorrection>
