<?xml version='1.0' encoding='utf-8'?>
<q:quakeml xmlns:q="http://quakeml.org/xmlns/quakeml/1.2" xmlns="http://quakeml.org/xmlns/bed/1.2">
  <eventParameters publicID="smi:nz.org.geonet/NA">
    <event publicID="smi:nz.org.geonet/2922302">
      <preferredOriginID>smi:nz.org.geonet/390705/GROPE</preferredOriginID>
      <preferredMagnitudeID>smi:nz.org.geonet/390705/GROPE/Mw</preferredMagnitudeID>
      <type>earthquake</type>
      <description>
        <text>felt</text>
        <type>felt report</type>
      </description>
      <creationInfo>
        <agencyID>WEL(CUSP_Catalogue)</agencyID>
      </creationInfo>
      <origin publicID="smi:nz.org.geonet/390705/GROPE">
        <time>
          <value>2008-06-12T21:06:24.237000Z</value>
          <uncertainty>0.12551</uncertainty>
        </time>
        <latitude>
          <value>-37.58283</value>
          <uncertainty>0.01104</uncertainty>
        </latitude>
        <longitude>
          <value>177.09467</value>
          <uncertainty>0.01092</uncertainty>
        </longitude>
        <depth>
          <value>5000.0</value>
        </depth>
        <depthType>operator assigned</depthType>
        <referenceSystemID>smi:nz.org.geonet/smi_ogc.def.crs/EPSG/4272</referenceSystemID>
        <methodID>smi:nz.org.geonet/GROPE</methodID>
        <earthModelID>smi:nz.org.geonet/nz1dr</earthModelID>
        <quality>
          <usedPhaseCount>59</usedPhaseCount>
          <usedStationCount>54</usedStationCount>
          <standardError>0.3062</standardError>
          <azimuthalGap>105.0</azimuthalGap>
          <minimumDistance>0.093</minimumDistance>
          <maximumDistance>2.397</maximumDistance>
        </quality>
        <evaluationMode>manual</evaluationMode>
        <evaluationStatus>reviewed</evaluationStatus>
        <creationInfo>
          <author>AXM</author>
          <creationTime>2013-02-25T12:09:00.000000Z</creationTime>
        </creationInfo>
        <arrival publicID="smi:nz.org.geonet/9216717#390705/GROPE">
          <pickID>smi:nz.org.geonet/9216717</pickID>
          <phase>Pb</phase>
          <azimuth>217.0</azimuth>
          <distance>1.894</distance>
          <takeoffAngle>
            <value>134.0</value>
          </takeoffAngle>
          <timeResidual>1.454</timeResidual>
          <timeWeight>0.16</timeWeight>
        </arrival>
        <arrival publicID="smi:nz.org.geonet/9216734#390705/GROPE">
          <pickID>smi:nz.org.geonet/9216734</pickID>
          <phase>Pb</phase>
          <azimuth>216.0</azimuth>
          <distance>2.027</distance>
          <takeoffAngle>
            <value>134.0</value>
          </takeoffAngle>
          <timeResidual>2.375</timeResidual>
          <timeWeight>0.06</timeWeight>
        </arrival>
        <arrival publicID="smi:nz.org.geonet/9216676#390705/GROPE">
          <pickID>smi:nz.org.geonet/9216676</pickID>
          <phase>Pb</phase>
          <azimuth>89.0</azimuth>
          <distance>0.963</distance>
          <takeoffAngle>
            <value>134.0</value>
          </takeoffAngle>
          <timeResidual>-0.179</timeResidual>
          <timeWeight>0.43</timeWeight>
        </arrival>
        <arrival publicID="smi:nz.org.geonet/5551637#390705/GROPE">
          <pickID>smi:nz.org.geonet/5551637</pickID>
          <phase>Pb</phase>
          <azimuth>196.0</azimuth>
          <distance>1.652</distance>
          <takeoffAngle>
            <value>134.0</value>
          </takeoffAngle>
          <timeResidual>-0.206</timeResidual>
          <timeWeight>0.49</timeWeight>
        </arrival>
        <arrival publicID="smi:nz.org.geonet/9216667#390705/GROPE">
          <pickID>smi:nz.org.geonet/9216667</pickID>
          <phase>Pn</phase>
          <azimuth>242.0</azimuth>
          <distance>1.998</distance>
          <takeoffAngle>
            <value>137.0</value>
          </takeoffAngle>
          <timeResidual>-1.05</timeResidual>
          <timeWeight>0.11</timeWeight>
        </arrival>
        <arrival publicID="smi:nz.org.geonet/5551651#390705/GROPE">
          <pickID>smi:nz.org.geonet/5551651</pickID>
          <phase>Pn</phase>
          <azimuth>306.0</azimuth>
          <distance>2.75</distance>
          <takeoffAngle>
            <value>137.0</value>
          </takeoffAngle>
          <timeResidual>-1.708</timeResidual>
          <timeWeight>0.0</timeWeight>
        </arrival>
        <arrival publicID="smi:nz.org.geonet/5551628#390705/GROPE">
          <pickID>smi:nz.org.geonet/5551628</pickID>
          <phase>Pb</phase>
          <azimuth>219.0</azimuth>
          <distance>1.406</distance>
          <takeoffAngle>
            <value>134.0</value>
          </takeoffAngle>
          <timeResidual>0.961</timeResidual>
          <timeWeight>0.39</timeWeight>
        </arrival>
        <arrival publicID="smi:nz.org.geonet/9216698#390705/GROPE">
          <pickID>smi:nz.org.geonet/9216698</pickID>
          <phase>Pb</phase>
          <azimuth>223.0</azimuth>
          <distance>1.555</distance>
          <takeoffAngle>
            <value>134.0</value>
          </takeoffAngle>
          <timeResidual>1.614</timeResidual>
          <timeWeight>0.1</timeWeight>
        </arrival>
        <arrival publicID="smi:nz.org.geonet/9216695#390705/GROPE">
          <pickID>smi:nz.org.geonet/9216695</pickID>
          <phase>Pn</phase>
          <azimuth>291.0</azimuth>
          <distance>2.054</distance>
          <takeoffAngle>
            <value>137.0</value>
          </takeoffAngle>
          <timeResidual>-0.628</timeResidual>
          <timeWeight>0.05</timeWeight>
        </arrival>
        <arrival publicID="smi:nz.org.geonet/9216703#390705/GROPE">
          <pickID>smi:nz.org.geonet/9216703</pickID>
          <phase>Pb</phase>
          <azimuth>215.0</azimuth>
          <distance>1.939</distance>
          <takeoffAngle>
            <value>134.0</value>
          </takeoffAngle>
          <timeResidual>0.255</timeResidual>
          <timeWeight>0.04</timeWeight>
        </arrival>
        <arrival publicID="smi:nz.org.geonet/9216679#390705/GROPE">
          <pickID>smi:nz.org.geonet/9216679</pickID>
          <phase>Pb</phase>
          <azimuth>263.0</azimuth>
          <distance>1.273</distance>
          <takeoffAngle>
            <value>134.0</value>
          </takeoffAngle>
          <timeResidual>-0.28</timeResidual>
          <timeWeight>0.23</timeWeight>
        </arrival>
        <arrival publicID="smi:nz.org.geonet/9216745#390705/GROPE">
          <pickID>smi:nz.org.geonet/9216745</pickID>
          <phase>Pn</phase>
          <azimuth>211.0</azimuth>
          <distance>8.893</distance>
          <takeoffAngle>
            <value>137.0</value>
          </takeoffAngle>
          <timeResidual>-1.532</timeResidual>
          <timeWeight>0.0</timeWeight>
        </arrival>
        <arrival publicID="smi:nz.org.geonet/9216678#390705/GROPE">
          <pickID>smi:nz.org.geonet/9216678</pickID>
          <phase>Pb</phase>
          <azimuth>215.0</azimuth>
          <distance>0.802</distance>
          <takeoffAngle>
            <value>134.0</value>
          </takeoffAngle>
          <timeResidual>0.666</timeResidual>
          <timeWeight>0.78</timeWeight>
        </arrival>
        <arrival publicID="smi:nz.org.geonet/9216674#390705/GROPE">
          <pickID>smi:nz.org.geonet/9216674</pickID>
          <phase>Pb</phase>
          <azimuth>233.0</azimuth>
          <distance>0.703</distance>
          <takeoffAngle>
            <value>134.0</value>
          </takeoffAngle>
          <timeResidual>-0.135</timeResidual>
          <timeWeight>0.88</timeWeight>
        </arrival>
        <arrival publicID="smi:nz.org.geonet/9216685#390705/GROPE">
          <pickID>smi:nz.org.geonet/9216685</pickID>
          <phase>Pb</phase>
          <azimuth>230.0</azimuth>
          <distance>0.929</distance>
          <takeoffAngle>
            <value>134.0</value>
          </takeoffAngle>
          <timeResidual>1.364</timeResidual>
          <timeWeight>0.54</timeWeight>
        </arrival>
        <arrival publicID="smi:nz.org.geonet/9216669#390705/GROPE">
          <pickID>smi:nz.org.geonet/9216669</pickID>
          <phase>Sg</phase>
          <azimuth>54.0</azimuth>
          <distance>0.093</distance>
          <takeoffAngle>
            <value>121.0</value>
          </takeoffAngle>
          <timeResidual>-0.727</timeResidual>
          <timeWeight>0.42</timeWeight>
        </arrival>
        <arrival publicID="smi:nz.org.geonet/9216689#390705/GROPE">
          <pickID>smi:nz.org.geonet/9216689</pickID>
          <phase>Pn</phase>
          <azimuth>287.0</azimuth>
          <distance>1.613</distance>
          <takeoffAngle>
            <value>137.0</value>
          </takeoffAngle>
          <timeResidual>-2.393</timeResidual>
          <timeWeight>0.0</timeWeight>
        </arrival>
        <arrival publicID="smi:nz.org.geonet/9216715#390705/GROPE">
          <pickID>smi:nz.org.geonet/9216715</pickID>
          <phase>Pb</phase>
          <azimuth>215.0</azimuth>
          <distance>2.102</distance>
          <takeoffAngle>
            <value>134.0</value>
          </takeoffAngle>
          <timeResidual>1.187</timeResidual>
          <timeWeight>0.01</timeWeight>
        </arrival>
        <arrival publicID="smi:nz.org.geonet/5551658#390705/GROPE">
          <pickID>smi:nz.org.geonet/5551658</pickID>
          <phase>Pn</phase>
          <azimuth>199.0</azimuth>
          <distance>2.628</distance>
          <takeoffAngle>
            <value>137.0</value>
          </takeoffAngle>
          <timeResidual>-0.054</timeResidual>
          <timeWeight>0.0</timeWeight>
        </arrival>
        <arrival publicID="smi:nz.org.geonet/9216725#390705/GROPE">
          <pickID>smi:nz.org.geonet/9216725</pickID>
          <phase>Pb</phase>
          <azimuth>229.0</azimuth>
          <distance>2.397</distance>
          <takeoffAngle>
            <value>137.0</value>
          </takeoffAngle>
          <timeResidual>0.622</timeResidual>
          <timeWeight>0.01</timeWeight>
        </arrival>
        <arrival publicID="smi:nz.org.geonet/9216706#390705/GROPE">
          <pickID>smi:nz.org.geonet/9216706</pickID>
          <phase>Pn</phase>
          <azimuth>307.0</azimuth>
          <distance>1.379</distance>
          <takeoffAngle>
            <value>137.0</value>
          </takeoffAngle>
          <timeResidual>-2.937</timeResidual>
          <timeWeight>0.0</timeWeight>
        </arrival>
        <arrival publicID="smi:nz.org.geonet/5551592#390705/GROPE">
          <pickID>smi:nz.org.geonet/5551592</pickID>
          <phase>Pb</phase>
          <azimuth>179.0</azimuth>
          <distance>0.677</distance>
          <takeoffAngle>
            <value>134.0</value>
          </takeoffAngle>
          <timeResidual>-1.323</timeResidual>
          <timeWeight>0.66</timeWeight>
        </arrival>
        <arrival publicID="smi:nz.org.geonet/9216673#390705/GROPE">
          <pickID>smi:nz.org.geonet/9216673</pickID>
          <phase>Pb</phase>
          <azimuth>237.0</azimuth>
          <distance>0.804</distance>
          <takeoffAngle>
            <value>134.0</value>
          </takeoffAngle>
          <timeResidual>0.096</timeResidual>
          <timeWeight>0.96</timeWeight>
        </arrival>
        <arrival publicID="smi:nz.org.geonet/5551595#390705/GROPE">
          <pickID>smi:nz.org.geonet/5551595</pickID>
          <phase>Sg</phase>
          <azimuth>238.0</azimuth>
          <distance>0.502</distance>
          <takeoffAngle>
            <value>121.0</value>
          </takeoffAngle>
          <timeResidual>-1.116</timeResidual>
          <timeWeight>0.42</timeWeight>
        </arrival>
        <arrival publicID="smi:nz.org.geonet/9216670#390705/GROPE">
          <pickID>smi:nz.org.geonet/9216670</pickID>
          <phase>Pg</phase>
          <azimuth>238.0</azimuth>
          <distance>0.502</distance>
          <takeoffAngle>
            <value>118.0</value>
          </takeoffAngle>
          <timeResidual>-0.967</timeResidual>
          <timeWeight>0.92</timeWeight>
        </arrival>
        <arrival publicID="smi:nz.org.geonet/9216744#390705/GROPE">
          <pickID>smi:nz.org.geonet/9216744</pickID>
          <phase>Pb</phase>
          <azimuth>294.0</azimuth>
          <distance>0.743</distance>
          <takeoffAngle>
            <value>134.0</value>
          </takeoffAngle>
          <timeResidual>-0.093</timeResidual>
          <timeWeight>0.49</timeWeight>
        </arrival>
        <arrival publicID="smi:nz.org.geonet/5551648#390705/GROPE">
          <pickID>smi:nz.org.geonet/5551648</pickID>
          <phase>Pg</phase>
          <azimuth>160.0</azimuth>
          <distance>0.459</distance>
          <takeoffAngle>
            <value>118.0</value>
          </takeoffAngle>
          <timeResidual>-0.622</timeResidual>
          <timeWeight>0.69</timeWeight>
        </arrival>
        <arrival publicID="smi:nz.org.geonet/9216735#390705/GROPE">
          <pickID>smi:nz.org.geonet/9216735</pickID>
          <phase>Sg</phase>
          <azimuth>193.0</azimuth>
          <distance>0.39</distance>
          <takeoffAngle>
            <value>121.0</value>
          </takeoffAngle>
          <timeResidual>-1.025</timeResidual>
          <timeWeight>0.42</timeWeight>
        </arrival>
        <arrival publicID="smi:nz.org.geonet/9216738#390705/GROPE">
          <pickID>smi:nz.org.geonet/9216738</pickID>
          <phase>Pn</phase>
          <azimuth>233.0</azimuth>
          <distance>2.897</distance>
          <takeoffAngle>
            <value>137.0</value>
          </takeoffAngle>
          <timeResidual>1.764</timeResidual>
          <timeWeight>0.0</timeWeight>
        </arrival>
        <arrival publicID="smi:nz.org.geonet/9216713#390705/GROPE">
          <pickID>smi:nz.org.geonet/9216713</pickID>
          <phase>Pn</phase>
          <azimuth>210.0</azimuth>
          <distance>4.818</distance>
          <takeoffAngle>
            <value>137.0</value>
          </takeoffAngle>
          <timeResidual>0.812</timeResidual>
          <timeWeight>0.0</timeWeight>
        </arrival>
        <arrival publicID="smi:nz.org.geonet/9216731#390705/GROPE">
          <pickID>smi:nz.org.geonet/9216731</pickID>
          <phase>Pn</phase>
          <azimuth>207.0</azimuth>
          <distance>3.689</distance>
          <takeoffAngle>
            <value>137.0</value>
          </takeoffAngle>
          <timeResidual>1.008</timeResidual>
          <timeWeight>0.0</timeWeight>
        </arrival>
        <arrival publicID="smi:nz.org.geonet/9216693#390705/GROPE">
          <pickID>smi:nz.org.geonet/9216693</pickID>
          <phase>Pb</phase>
          <azimuth>211.0</azimuth>
          <distance>1.527</distance>
          <takeoffAngle>
            <value>134.0</value>
          </takeoffAngle>
          <timeResidual>0.797</timeResidual>
          <timeWeight>0.1</timeWeight>
        </arrival>
        <arrival publicID="smi:nz.org.geonet/9216700#390705/GROPE">
          <pickID>smi:nz.org.geonet/9216700</pickID>
          <phase>Pn</phase>
          <azimuth>180.0</azimuth>
          <distance>2.074</distance>
          <takeoffAngle>
            <value>137.0</value>
          </takeoffAngle>
          <timeResidual>0.857</timeResidual>
          <timeWeight>0.03</timeWeight>
        </arrival>
        <arrival publicID="smi:nz.org.geonet/9216686#390705/GROPE">
          <pickID>smi:nz.org.geonet/9216686</pickID>
          <phase>Pb</phase>
          <azimuth>136.0</azimuth>
          <distance>1.258</distance>
          <takeoffAngle>
            <value>122.0</value>
          </takeoffAngle>
          <timeResidual>1.013</timeResidual>
          <timeWeight>0.4</timeWeight>
        </arrival>
        <arrival publicID="smi:nz.org.geonet/9216699#390705/GROPE">
          <pickID>smi:nz.org.geonet/9216699</pickID>
          <phase>Pn</phase>
          <azimuth>287.0</azimuth>
          <distance>2.113</distance>
          <takeoffAngle>
            <value>137.0</value>
          </takeoffAngle>
          <timeResidual>-0.898</timeResidual>
          <timeWeight>0.05</timeWeight>
        </arrival>
        <arrival publicID="smi:nz.org.geonet/9216732#390705/GROPE">
          <pickID>smi:nz.org.geonet/9216732</pickID>
          <phase>Pb</phase>
          <azimuth>217.0</azimuth>
          <distance>1.936</distance>
          <takeoffAngle>
            <value>134.0</value>
          </takeoffAngle>
          <timeResidual>1.328</timeResidual>
          <timeWeight>0.13</timeWeight>
        </arrival>
        <arrival publicID="smi:nz.org.geonet/9216726#390705/GROPE">
          <pickID>smi:nz.org.geonet/9216726</pickID>
          <phase>Pb</phase>
          <azimuth>215.0</azimuth>
          <distance>2.064</distance>
          <takeoffAngle>
            <value>134.0</value>
          </takeoffAngle>
          <timeResidual>0.546</timeResidual>
          <timeWeight>0.02</timeWeight>
        </arrival>
        <arrival publicID="smi:nz.org.geonet/9216724#390705/GROPE">
          <pickID>smi:nz.org.geonet/9216724</pickID>
          <phase>Pb</phase>
          <azimuth>215.0</azimuth>
          <distance>2.075</distance>
          <takeoffAngle>
            <value>134.0</value>
          </takeoffAngle>
          <timeResidual>4.272</timeResidual>
          <timeWeight>0.0</timeWeight>
        </arrival>
        <arrival publicID="smi:nz.org.geonet/9216697#390705/GROPE">
          <pickID>smi:nz.org.geonet/9216697</pickID>
          <phase>Pb</phase>
          <azimuth>216.0</azimuth>
          <distance>1.978</distance>
          <takeoffAngle>
            <value>134.0</value>
          </takeoffAngle>
          <timeResidual>0.647</timeResidual>
          <timeWeight>0.11</timeWeight>
        </arrival>
        <arrival publicID="smi:nz.org.geonet/9216666#390705/GROPE">
          <pickID>smi:nz.org.geonet/9216666</pickID>
          <phase>Pn</phase>
          <azimuth>184.0</azimuth>
          <distance>2.453</distance>
          <takeoffAngle>
            <value>137.0</value>
          </takeoffAngle>
          <timeResidual>-1.346</timeResidual>
          <timeWeight>0.0</timeWeight>
        </arrival>
        <arrival publicID="smi:nz.org.geonet/9216730#390705/GROPE">
          <pickID>smi:nz.org.geonet/9216730</pickID>
          <phase>Pn</phase>
          <azimuth>309.0</azimuth>
          <distance>3.677</distance>
          <takeoffAngle>
            <value>137.0</value>
          </takeoffAngle>
          <timeResidual>-1.11</timeResidual>
          <timeWeight>0.0</timeWeight>
        </arrival>
        <arrival publicID="smi:nz.org.geonet/9216671#390705/GROPE">
          <pickID>smi:nz.org.geonet/9216671</pickID>
          <phase>Pb</phase>
          <azimuth>257.0</azimuth>
          <distance>0.678</distance>
          <takeoffAngle>
            <value>134.0</value>
          </takeoffAngle>
          <timeResidual>-0.202</timeResidual>
          <timeWeight>0.98</timeWeight>
        </arrival>
        <arrival publicID="smi:nz.org.geonet/5551657#390705/GROPE">
          <pickID>smi:nz.org.geonet/5551657</pickID>
          <phase>Pg</phase>
          <azimuth>230.0</azimuth>
          <distance>0.437</distance>
          <takeoffAngle>
            <value>118.0</value>
          </takeoffAngle>
          <timeResidual>-0.706</timeResidual>
          <timeWeight>0.79</timeWeight>
        </arrival>
        <arrival publicID="smi:nz.org.geonet/5551647#390705/GROPE">
          <pickID>smi:nz.org.geonet/5551647</pickID>
          <phase>Sg</phase>
          <azimuth>160.0</azimuth>
          <distance>0.459</distance>
          <takeoffAngle>
            <value>121.0</value>
          </takeoffAngle>
          <timeResidual>0.593</timeResidual>
          <timeWeight>0.29</timeWeight>
        </arrival>
