<?xml version='1.0' encoding='utf-8'?>
<q:quakeml xmlns:q="http://quakeml.org/xmlns/quakeml/1.2" xmlns="http://quakeml.org/xmlns/bed/1.2">
  <eventParameters publicID="smi:nz.org.geonet/NA">
    <event publicID="smi:nz.org.geonet/2014p864702">
      <preferredOriginID>smi:nz.org.geonet/NLL.20141122080953.619285.15450</preferredOriginID>
      <preferredMagnitudeID>smi:nz.org.geonet/NLL.20141122080953.619285.15450#netMag.M</preferredMagnitudeID>
      <type>earthquake</type>
      <creationInfo>
        <agencyID>WEL(GNS_Primary)</agencyID>
        <author>scevent@akeqp01.geonet.org.nz</author>
        <creationTime>2014-11-16T22:34:04.320011Z</creationTime>
      </creationInfo>
      <origin publicID="smi:nz.org.geonet/NLL.20141122080953.619285.15450">
        <time>
          <value>2014-11-16T22:33:17.966940Z</value>
        </time>
        <latitude>
          <value>-37.59731987</value>
          <uncertainty>7.183031785</uncertainty>
        </latitude>
        <longitude>
          <value>-179.8875817</value>
          <uncertainty>8.088239317</uncertainty>
        </longitude>
        <depth>
          <value>32187.5</value>
          <uncertainty>26489.59028</uncertainty>
        </depth>
        <methodID>smi:nz.org.geonet/NonLinLoc</methodID>
        <earthModelID>smi:nz.org.geonet/nz3drx</earthModelID>
        <quality>
          <associatedPhaseCount>155</associatedPhaseCount>
          <usedPhaseCount>23</usedPhaseCount>
          <usedStationCount>15</usedStationCount>
          <standardError>0.4750504119</standardError>
          <azimuthalGap>317.6567963</azimuthalGap>
          <secondaryAzimuthalGap>317.9021986</secondaryAzimuthalGap>
          <groundTruthLevel>-</groundTruthLevel>
          <minimumDistance>1.3754401</minimumDistance>
          <maximumDistance>2.357237667</maximumDistance>
          <medianDistance>2.020538316</medianDistance>
        </quality>
        <evaluationMode>manual</evaluationMode>
        <evaluationStatus>confirmed</evaluationStatus>
        <creationInfo>
          <agencyID>WEL(GNS_Primary)</agencyID>
          <author>ashenden@akeqx01.geonet.org.nz</author>
          <creationTime>2014-11-22T08:09:56.579794Z</creationTime>
        </creationInfo>
        <originUncertainty>
          <horizontalUncertainty>12.66150865</horizontalUncertainty>
          <minHorizontalUncertainty>10.43177783</minHorizontalUncertainty>
          <maxHorizontalUncertainty>12.66150865</maxHorizontalUncertainty>
          <azimuthMaxHorizontalUncertainty>64.06565946</azimuthMaxHorizontalUncertainty>
          <confidenceEllipsoid>
            <semiMajorAxisLength>50.37230294</semiMajorAxisLength>
            <semiMinorAxisLength>10.99984939</semiMinorAxisLength>
            <semiIntermediateAxisLength>15.22151989</semiIntermediateAxisLength>
            <majorAxisPlunge>170.8747462</majorAxisPlunge>
            <majorAxisAzimuth>-65.76439767</majorAxisAzimuth>
            <majorAxisRotation>98.4345645</majorAxisRotation>
          </confidenceEllipsoid>
        </originUncertainty>
        <arrival publicID="smi:nz.org.geonet/20141116.223341.31-AIC-NZ.WMGZ.10.EHZ#NLL.20141122080953.619285.15450">
          <pickID>smi:nz.org.geonet/20141116.223341.31-AIC-NZ.WMGZ.10.EHZ</pickID>
          <phase>P</phase>
          <timeCorrection>0.0</timeCorrection>
          <azimuth>260.7227832</azimuth>
          <distance>1.3754401</distance>
          <timeResidual>0.01189735878</timeResidual>
          <timeWeight>1.314876733</timeWeight>
        </arrival>
        <arrival publicID="smi:nz.org.geonet/20141116.223342.05-AIC-NZ.MXZ.10.HHZ#NLL.20141122080953.619285.15450">
          <pickID>smi:nz.org.geonet/20141116.223342.05-AIC-NZ.MXZ.10.HHZ</pickID>
          <phase>P</phase>
          <timeCorrection>0.0</timeCorrection>
          <azimuth>271.3353673</azimuth>
          <distance>1.429483989</distance>
          <timeResidual>-0.0237946273</timeResidual>
          <timeWeight>1.304586347</timeWeight>
        </arrival>
        <arrival publicID="smi:nz.org.geonet/Pick#20141122080500.250115.15247#NLL.20141122080953.619285.15450">
          <pickID>smi:nz.org.geonet/Pick#20141122080500.250115.15247</pickID>
          <phase>S</phase>
          <timeCorrection>0.0</timeCorrection>
          <azimuth>271.3353673</azimuth>
          <distance>1.429483989</distance>
          <timeResidual>-0.2734418075</timeResidual>
          <timeWeight>1.051953051</timeWeight>
        </arrival>
        <arrival publicID="smi:nz.org.geonet/20141116.223344.10-AIC-NZ.PUZ.10.HHZ#NLL.20141122080953.619285.15450">
          <pickID>smi:nz.org.geonet/20141116.223344.10-AIC-NZ.PUZ.10.HHZ</pickID>
          <phase>P</phase>
          <timeCorrection>0.0</timeCorrection>
          <azimuth>252.3601865</azimuth>
          <distance>1.570416595</distance>
          <timeResidual>-0.02871673118</timeResidual>
          <timeWeight>1.279476452</timeWeight>
        </arrival>
        <arrival publicID="smi:nz.org.geonet/Pick#20141122080500.250469.15248#NLL.20141122080953.619285.15450">
          <pickID>smi:nz.org.geonet/Pick#20141122080500.250469.15248</pickID>
          <phase>S</phase>
          <timeCorrection>0.0</timeCorrection>
          <azimuth>252.3601865</azimuth>
          <distance>1.570416595</distance>
          <timeResidual>0.559373964</timeResidual>
          <timeWeight>0.9592897626</timeWeight>
        </arrival>
        <arrival publicID="smi:nz.org.geonet/20141116.223347.96-AIC-NZ.CNGZ.10.EHZ#NLL.20141122080953.619285.15450">
          <pickID>smi:nz.org.geonet/20141116.223347.96-AIC-NZ.CNGZ.10.EHZ</pickID>
          <phase>P</phase>
          <timeCorrection>0.0</timeCorrection>
          <azimuth>240.3362547</azimuth>
          <distance>1.794281358</distance>
          <timeResidual>0.5977150773</timeResidual>
          <timeWeight>1.04922456</timeWeight>
        </arrival>
        <arrival publicID="smi:nz.org.geonet/Pick#20141122080500.250582.15249#NLL.20141122080953.619285.15450">
          <pickID>smi:nz.org.geonet/Pick#20141122080500.250582.15249</pickID>
          <phase>S</phase>
          <timeCorrection>0.0</timeCorrection>
          <azimuth>240.3362547</azimuth>
          <distance>1.794281358</distance>
          <timeResidual>2.145990993</timeResidual>
          <timeWeight>0.0</timeWeight>
        </arrival>
        <arrival publicID="smi:nz.org.geonet/20141116.223347.72-AIC-NZ.TWGZ.10.EHZ#NLL.20141122080953.619285.15450">
          <pickID>smi:nz.org.geonet/20141116.223347.72-AIC-NZ.TWGZ.10.EHZ</pickID>
          <phase>P</phase>
          <timeCorrection>0.0</timeCorrection>
          <azimuth>251.3887832</azimuth>
          <distance>1.815058156</distance>
          <timeResidual>0.0987066697</timeResidual>
          <timeWeight>1.233592346</timeWeight>
        </arrival>
        <arrival publicID="smi:nz.org.geonet/Pick#20141122080500.250701.15250#NLL.20141122080953.619285.15450">
          <pickID>smi:nz.org.geonet/Pick#20141122080500.250701.15250</pickID>
          <phase>S</phase>
          <timeCorrection>0.0</timeCorrection>
          <azimuth>251.3887832</azimuth>
          <distance>1.815058156</distance>
          <timeResidual>1.032903029</timeResidual>
          <timeWeight>0.7515694039</timeWeight>
        </arrival>
        <arrival publicID="smi:nz.org.geonet/20141116.223348.12-AIC-NZ.HAZ.10.HHZ#NLL.20141122080953.619285.15450">
          <pickID>smi:nz.org.geonet/20141116.223348.12-AIC-NZ.HAZ.10.HHZ</pickID>
          <phase>P</phase>
          <timeCorrection>0.0</timeCorrection>
          <azimuth>265.104345</azimuth>
          <distance>1.860164519</distance>
          <timeResidual>-0.01704040062</timeResidual>
          <timeWeight>1.229984053</timeWeight>
        </arrival>
        <arrival publicID="smi:nz.org.geonet/Pick#20141122080500.250835.15251#NLL.20141122080953.619285.15450">
          <pickID>smi:nz.org.geonet/Pick#20141122080500.250835.15251</pickID>
          <phase>S</phase>
          <timeCorrection>0.0</timeCorrection>
          <azimuth>265.104345</azimuth>
          <distance>1.860164519</distance>
          <timeResidual>2.406009096</timeResidual>
          <timeWeight>0.0</timeWeight>
        </arrival>
        <arrival publicID="smi:nz.org.geonet/20141116.223349.58-AIC-NZ.RUGZ.10.EHZ#NLL.20141122080953.619285.15450">
          <pickID>smi:nz.org.geonet/20141116.223349.58-AIC-NZ.RUGZ.10.EHZ</pickID>
          <phase>P</phase>
          <timeCorrection>0.0</timeCorrection>
          <azimuth>259.3085721</azimuth>
          <distance>1.982043787</distance>
          <timeResidual>-0.3981868697</timeResidual>
          <timeWeight>1.10870905</timeWeight>
        </arrival>
        <arrival publicID="smi:nz.org.geonet/20141116.223350.57-AIC-NZ.TKGZ.10.EHZ#NLL.20141122080953.619285.15450">
          <pickID>smi:nz.org.geonet/20141116.223350.57-AIC-NZ.TKGZ.10.EHZ</pickID>
          <phase>P</phase>
          <timeCorrection>0.0</timeCorrection>
          <azimuth>245.3811718</azimuth>
          <distance>2.020538316</distance>
          <timeResidual>0.03614143837</timeResidual>
          <timeWeight>1.200505403</timeWeight>
        </arrival>
        <arrival publicID="smi:nz.org.geonet/Pick#20141122080500.250953.15252#NLL.20141122080953.619285.15450">
          <pickID>smi:nz.org.geonet/Pick#20141122080500.250953.15252</pickID>
          <phase>S</phase>
          <timeCorrection>0.0</timeCorrection>
          <azimuth>245.3811718</azimuth>
          <distance>2.020538316</distance>
          <timeResidual>-0.402781816</timeResidual>
          <timeWeight>0.8870611335</timeWeight>
        </arrival>
        <arrival publicID="smi:nz.org.geonet/20141116.223352.47-AIC-NZ.MWZ.10.HHZ#NLL.20141122080953.619285.15450">
          <pickID>smi:nz.org.geonet/20141116.223352.47-AIC-NZ.MWZ.10.HHZ</pickID>
          <phase>P</phase>
          <timeCorrection>0.0</timeCorrection>
          <azimuth>250.4842672</azimuth>
          <distance>2.210149905</distance>
          <timeResidual>-0.7167211105</timeResidual>
          <timeWeight>0.917345233</timeWeight>
        </arrival>
        <arrival publicID="smi:nz.org.geonet/Pick#20141122080500.251171.15254#NLL.20141122080953.619285.15450">
          <pickID>smi:nz.org.geonet/Pick#20141122080500.251171.15254</pickID>
          <phase>S</phase>
          <timeCorrection>0.0</timeCorrection>
          <azimuth>250.4842672</azimuth>
          <distance>2.210149905</distance>
          <timeResidual>-2.0226817</timeResidual>
          <timeWeight>0.345405469</timeWeight>
        </arrival>
        <arrival publicID="smi:nz.org.geonet/20141116.223353.18-AIC-NZ.RIGZ.10.EHZ#NLL.20141122080953.619285.15450">
          <pickID>smi:nz.org.geonet/20141116.223353.18-AIC-NZ.RIGZ.10.EHZ</pickID>
          <phase>P</phase>
          <timeCorrection>0.0</timeCorrection>
          <azimuth>239.9902573</azimuth>
          <distance>2.215872719</distance>
          <timeResidual>-0.1388126327</timeResidual>
          <timeWeight>1.151822571</timeWeight>
        </arrival>
        <arrival publicID="smi:nz.org.geonet/Pick#20141122080500.251063.15253#NLL.20141122080953.619285.15450">
          <pickID>smi:nz.org.geonet/Pick#20141122080500.251063.15253</pickID>
          <phase>S</phase>
          <timeCorrection>0.0</timeCorrection>
          <azimuth>239.9902573</azimuth>
          <distance>2.215872719</distance>
          <timeResidual>-0.560301683</timeResidual>
          <timeWeight>0.8182272651</timeWeight>
        </arrival>
        <arrival publicID="smi:nz.org.geonet/20141116.223353.84-AIC-NZ.PRGZ.10.EHZ#NLL.20141122080953.619285.15450">
          <pickID>smi:nz.org.geonet/20141116.223353.84-AIC-NZ.PRGZ.10.EHZ</pickID>
          <phase>P</phase>
          <timeCorrection>0.0</timeCorrection>
          <azimuth>234.1487369</azimuth>
          <distance>2.265251926</distance>
          <timeResidual>-0.1722292281</timeResidual>
          <timeWeight>1.137527678</timeWeight>
        </arrival>
        <arrival publicID="smi:nz.org.geonet/Pick#20141122080500.251279.15255#NLL.20141122080953.619285.15450">
          <pickID>smi:nz.org.geonet/Pick#20141122080500.251279.15255</pickID>
          <phase>S</phase>
          <timeCorrection>0.0</timeCorrection>
          <azimuth>234.1487369</azimuth>
          <distance>2.265251926</distance>
          <timeResidual>1.059116353</timeResidual>
          <timeWeight>0.7071057896</timeWeight>
        </arrival>
        <arrival publicID="smi:nz.org.geonet/20141116.223354.85-AIC-NZ.WIZ.10.HHZ#NLL.20141122080953.619285.15450">
          <pickID>smi:nz.org.geonet/20141116.223354.85-AIC-NZ.WIZ.10.HHZ</pickID>
          <phase>P</phase>
          <timeCorrection>0.0</timeCorrection>
          <azimuth>271.709049</azimuth>
          <distance>2.3137766</distance>
          <timeResidual>0.341100435</timeResidual>
          <timeWeight>1.105293265</timeWeight>
        </arrival>
        <arrival publicID="smi:nz.org.geonet/20141116.223356.14-AIC-NZ.WSRZ.10.HHZ#NLL.20141122080953.619285.15450">
          <pickID>smi:nz.org.geonet/20141116.223356.14-AIC-NZ.WSRZ.10.HHZ</pickID>
          <phase>P</phase>
          <timeCorrection>0.0</timeCorrection>
          <azimuth>271.9544514</azimuth>
          <distance>2.322367303</distance>
          <timeResidual>1.470300069</timeResidual>
          <timeWeight>0.5166794944</timeWeight>
        </arrival>
        <arrival publicID="smi:nz.org.geonet/20141116.223355.34-AIC-NZ.RAGZ.10.EHZ#NLL.20141122080953.619285.15450">
          <pickID>smi:nz.org.geonet/20141116.223355.34-AIC-NZ.RAGZ.10.EHZ</pickID>
          <phase>P</phase>
          <timeCorrection>0.0</timeCorrection>
          <azimuth>247.6044575</azimuth>
          <distance>2.357237667</distance>
          <timeResidual>0.0955892228</timeResidual>
          <timeWeight>1.139684025</timeWeight>
        </arrival>
        <arrival publicID="smi:nz.org.geonet/20141116.223355.70-AIC-NZ.MHGZ.10.EHZ#NLL.20141122080953.619285.15450">
          <pickID>smi:nz.org.geonet/20141116.223355.70-AIC-NZ.MHGZ.10.EHZ</pickID>
          <phase>P</phase>
          <timeCorrection>0.0</timeCorrection>
          <azimuth>229.6112477</azimuth>
          <distance>2.402385471</distance>
          <timeResidual>-0.3481217147</timeResidual>
          <timeWeight>1.06901314</timeWeight>
        </arrival>
        <arrival publicID="smi:nz.org.geonet/Pick#20141122080500.251401.15256#NLL.20141122080953.619285.15450">
          <pickID>smi:nz.org.geonet/Pick#20141122080500.251401.15256</pickID>
          <phase>S</phase>
          <timeCorrection>0.0</timeCorrection>
          <azimuth>229.6112477</azimuth>
          <distance>2.402385471</distance>
          <timeResidual>0.9578701249</timeResidual>
          <timeWeight>0.7210677743</timeWeight>
        </arrival>
        <arrival publicID="smi:nz.org.geonet/20141116.223355.93-AIC-NZ.KNZ.10.HHZ#NLL.20141122080953.619285.15450">
          <pickID>smi:nz.org.geonet/20141116.223355.93-AIC-NZ.KNZ.10.HHZ</pickID>
          <phase>P</phase>
          <timeCorrection>0.0</timeCorrection>
          <azimuth>234.5739831</azimuth>
          <distance>2.45992799</distance>
          <timeResidual>-0.803210826</timeResidual>
          <timeWeight>0.0</timeWeight>
        </arrival>
        <arrival publicID="smi:nz.org.geonet/Pick#20141122080500.251514.15257#NLL.20141122080953.619285.15450">
          <pickID>smi:nz.org.geonet/Pick#20141122080500.251514.15257</pickID>
          <phase>S</phase>
          <timeCorrection>0.0</timeCorrection>
          <azimuth>234.5739831</azimuth>
          <distance>2.45992799</distance>
          <timeResidual>-0.8765623092</timeResidual>
          <timeWeight>0.0</timeWeight>
        </arrival>
        <arrival publicID="smi:nz.org.geonet/20141116.223357.00-AIC-NZ.URZ.10.HHZ#NLL.20141122080953.619285.15450">
          <pickID>smi:nz.org.geonet/20141116.223357.00-AIC-NZ.URZ.10.HHZ</pickID>
          <phase>P</phase>
          <timeCorrection>0.0</timeCorrection>
          <azimuth>254.5870438</azimuth>
          <distance>2.496668692</distance>
          <timeResidual>-0.1142227889</timeResidual>
          <timeWeight>0.0</timeWeight>
        </arrival>
        <arrival publicID="smi:nz.org.geonet/Pick#20141122080500.251626.15258#NLL.20141122080953.619285.15450">
          <pickID>smi:nz.org.geonet/Pick#20141122080500.251626.15258</pickID>
          <phase>S</phase>
          <timeCorrection>0.0</timeCorrection>
          <azimuth>254.5870438</azimuth>
          <distance>2.496668692</distance>
          <timeResidual>-0.843909294</timeResidual>
          <timeWeight>0.0</timeWeight>
        </arrival>
        <arrival publicID="smi:nz.org.geonet/20141116.223357.44-AIC-NZ.WHRZ.10.EHZ#NLL.20141122080953.619285.15450">
          <pickID>smi:nz.org.geonet/20141116.223357.44-AIC-NZ.WHRZ.10.EHZ</pickID>
          <phase>P</phase>
          <timeCorrection>0.0</timeCorrection>
          <azimuth>264.0918096</azimuth>
          <distance>2.509643194</distance>
          <timeResidual>0.1153585099</timeResidual>
          <timeWeight>0.0</timeWeight>
        </arrival>
        <arrival publicID="smi:nz.org.geonet/20141116.223400.08-AIC-NZ.RTZ.10.HHZ#NLL.20141122080953.619285.15450">
          <pickID>smi:nz.org.geonet/20141116.223400.08-AIC-NZ.RTZ.10.HHZ</pickID>
          <phase>P</phase>
          <timeCorrection>0.0</timeCorrection>
          <azimuth>248.0386041</azimuth>
          <distance>2.721737751</distance>
          <timeResidual>-0.2451679183</timeResidual>
          <timeWeight>0.0</timeWeight>
        </arrival>
        <arrival publicID="smi:nz.org.geonet/20141116.223400.41-AIC-NZ.EDRZ.10.EHZ#NLL.20141122080953.619285.15450">
          <pickID>smi:nz.org.geonet/20141116.223400.41-AIC-NZ.EDRZ.10.EHZ</pickID>
          <phase>P</phase>
          <timeCorrection>0.0</timeCorrection>
          <azimuth>259.2573006</azimuth>
          <distance>2.740788776</distance>
          <timeResidual>-0.09351645958</timeResidual>
          <timeWeight>0.0</timeWeight>
        </arrival>
        <arrival publicID="smi:nz.org.geonet/20141116.223400.34-AIC-NZ.MARZ.10.EHZ#NLL.20141122080953.619285.15450">
          <pickID>smi:nz.org.geonet/20141116.223400.34-AIC-NZ.MARZ.10.EHZ</pickID>
          <phase>P</phase>
          <timeCorrection>0.0</timeCorrection>
          <azimuth>261.9107785</azimuth>
          <distance>2.766611742</distance>
          <timeResidual>-0.516421733</timeResidual>
          <timeWeight>0.0</timeWeight>
        </arrival>
        <arrival publicID="smi:nz.org.geonet/20141116.223400.77-AIC-NZ.WHHZ.10.EHZ#NLL.20141122080953.619285.15450">
          <pickID>smi:nz.org.geonet/20141116.223400.77-AIC-NZ.WHHZ.10.EHZ</pickID>
          <phase>P</phase>
          <timeCorrection>0.0</timeCorrection>
          <azimuth>237.7896855</azimuth>
          <distance>2.775066601</distance>
          <timeResidual>-0.4233510543</timeResidual>
          <timeWeight>0.0</timeWeight>
        </arrival>
        <arrival publicID="smi:nz.org.geonet/20141116.223400.91-AIC-NZ.RAHZ.10.EHZ#NLL.20141122080953.619285.15450">
          <pickID>smi:nz.org.geonet/20141116.223400.91-AIC-NZ.RAHZ.10.EHZ</pickID>
          <phase>P</phase>
          <timeCorrection>0.0</timeCorrection>
          <azimuth>241.7352134</azimuth>
          <distance>2.788152129</distance>
          <timeResidual>-0.589705577</timeResidual>
          <timeWeight>0.0</timeWeight>
        </arrival>
        <arrival publicID="smi:nz.org.geonet/20141116.223401.17-AIC-NZ.MUGZ.10.EHZ#NLL.20141122080953.619285.15450">
          <pickID>smi:nz.org.geonet/20141116.223401.17-AIC-NZ.MUGZ.10.EHZ</pickID>
          <phase>P</phase>
          <timeCorrection>0.0</timeCorrection>
          <azimuth>251.8510762</azimuth>
          <distance>2.823889473</distance>
          <timeResidual>-0.5698865462</timeResidual>
          <timeWeight>0.0</timeWeight>
        </arrival>
