<?xml version='1.0' encoding='utf-8'?>
<q:quakeml xmlns:q="http://quakeml.org/xmlns/quakeml/1.2" xmlns="http://quakeml.org/xmlns/bed/1.2">
  <eventParameters publicID="smi:nz.org.geonet/NA">
    <event publicID="smi:nz.org.geonet/2016p842451">
      <preferredOriginID>smi:nz.org.geonet/Origin#20161204223301.335795.66228</preferredOriginID>
      <preferredMagnitudeID>smi:nz.org.geonet/Origin#20161204223301.335795.66228#netMag.M</preferredMagnitudeID>
      <type>earthquake</type>
      <creationInfo>
        <agencyID>WEL(GNS_Primary)</agencyID>
        <author>scevent@akeqp01.geonet.org.nz</author>
        <creationTime>2016-11-07T16:59:29.431884Z</creationTime>
      </creationInfo>
      <origin publicID="smi:nz.org.geonet/Origin#20161204223301.335795.66228">
        <time>
          <value>2016-11-07T16:59:07.167808Z</value>
          <uncertainty>0.5625675936</uncertainty>
          <confidenceLevel>89.99999762</confidenceLevel>
        </time>
        <latitude>
          <value>-39.31875992</value>
          <uncertainty>3.238756395</uncertainty>
          <confidenceLevel>89.99999762</confidenceLevel>
        </latitude>
        <longitude>
          <value>173.7597046</value>
          <uncertainty>3.134149174</uncertainty>
          <confidenceLevel>89.99999762</confidenceLevel>
        </longitude>
        <depth>
          <value>13519.35005</value>
          <uncertainty>2227.243866</uncertainty>
          <confidenceLevel>89.99999762</confidenceLevel>
        </depth>
        <methodID>smi:nz.org.geonet/LOCSAT</methodID>
        <earthModelID>smi:nz.org.geonet/iasp91</earthModelID>
        <quality>
          <associatedPhaseCount>202</associatedPhaseCount>
          <usedPhaseCount>40</usedPhaseCount>
          <associatedStationCount>177</associatedStationCount>
          <usedStationCount>31</usedStationCount>
          <depthPhaseCount>0</depthPhaseCount>
          <standardError>0.6098262651</standardError>
          <azimuthalGap>188.5545425</azimuthalGap>
          <minimumDistance>0.09790228307</minimumDistance>
          <maximumDistance>1.818961263</maximumDistance>
          <medianDistance>1.28504014</medianDistance>
        </quality>
        <evaluationMode>manual</evaluationMode>
        <evaluationStatus>confirmed</evaluationStatus>
        <creationInfo>
          <agencyID>WEL(GNS_Primary)</agencyID>
          <author>srwgbgf@akeqx01.geonet.org.nz</author>
          <creationTime>2016-12-04T22:33:01.340143Z</creationTime>
        </creationInfo>
        <originUncertainty>
          <preferredDescription>confidence ellipsoid</preferredDescription>
          <horizontalUncertainty>4.506931776</horizontalUncertainty>
          <minHorizontalUncertainty>3.105503727</minHorizontalUncertainty>
          <maxHorizontalUncertainty>4.99300785</maxHorizontalUncertainty>
          <azimuthMaxHorizontalUncertainty>137.1285778</azimuthMaxHorizontalUncertainty>
          <confidenceEllipsoid>
            <semiMajorAxisLength>5843.578136</semiMajorAxisLength>
            <semiMinorAxisLength>3274.664055</semiMinorAxisLength>
            <semiIntermediateAxisLength>3677.595179</semiIntermediateAxisLength>
            <majorAxisPlunge>6.625985998</majorAxisPlunge>
            <majorAxisAzimuth>137.4510369</majorAxisAzimuth>
            <majorAxisRotation>65.98641398</majorAxisRotation>
          </confidenceEllipsoid>
        </originUncertainty>
        <arrival publicID="smi:nz.org.geonet/20161107.165911.42-AIC-NZ.NMEZ.10.EHZ#Origin#20161204223301.335795.66228">
          <pickID>smi:nz.org.geonet/20161107.165911.42-AIC-NZ.NMEZ.10.EHZ</pickID>
          <phase>P</phase>
          <azimuth>135.9625702</azimuth>
          <distance>0.1312778294</distance>
          <timeResidual>-0.261507988</timeResidual>
          <timeWeight>1.0</timeWeight>
        </arrival>
        <arrival publicID="smi:nz.org.geonet/Pick#20161107170509.256216.24846#Origin#20161204223301.335795.66228">
          <pickID>smi:nz.org.geonet/Pick#20161107170509.256216.24846</pickID>
          <phase>S</phase>
          <azimuth>135.9625702</azimuth>
          <distance>0.1312778294</distance>
          <timeResidual>-0.7618498802</timeResidual>
          <timeWeight>1.0</timeWeight>
        </arrival>
        <arrival publicID="smi:nz.org.geonet/Pick#20161107170509.256715.24847#Origin#20161204223301.335795.66228">
          <pickID>smi:nz.org.geonet/Pick#20161107170509.256715.24847</pickID>
          <phase>S</phase>
          <azimuth>58.81546402</azimuth>
          <distance>0.09790228307</distance>
          <timeResidual>1.70321846</timeResidual>
          <timeWeight>0.0</timeWeight>
        </arrival>
        <arrival publicID="smi:nz.org.geonet/Pick#20161107170550.304127.24914#Origin#20161204223301.335795.66228">
          <pickID>smi:nz.org.geonet/Pick#20161107170550.304127.24914</pickID>
          <phase>P</phase>
          <azimuth>58.81546402</azimuth>
          <distance>0.09790228307</distance>
          <timeResidual>1.093847275</timeResidual>
          <timeWeight>1.0</timeWeight>
        </arrival>
        <arrival publicID="smi:nz.org.geonet/20161107.165913.13-AIC-NZ.KHEZ.10.HHZ#Origin#20161204223301.335795.66228">
          <pickID>smi:nz.org.geonet/20161107.165913.13-AIC-NZ.KHEZ.10.HHZ</pickID>
          <phase>P</phase>
          <azimuth>83.00788879</azimuth>
          <distance>0.1991950274</distance>
          <timeResidual>0.3086116314</timeResidual>
          <timeWeight>1.0</timeWeight>
        </arrival>
        <arrival publicID="smi:nz.org.geonet/20161107.165913.89-AIC-NZ.PKE.10.EHZ#Origin#20161204223301.335795.66228">
          <pickID>smi:nz.org.geonet/20161107.165913.89-AIC-NZ.PKE.10.EHZ</pickID>
          <phase>P</phase>
          <azimuth>54.78423691</azimuth>
          <distance>0.2159182727</distance>
          <timeResidual>0.7942855358</timeResidual>
          <timeWeight>1.0</timeWeight>
        </arrival>
        <arrival publicID="smi:nz.org.geonet/20161107.165913.92-AIC-NZ.NEZ.11.EHZ#Origin#20161204223301.335795.66228">
          <pickID>smi:nz.org.geonet/20161107.165913.92-AIC-NZ.NEZ.11.EHZ</pickID>
          <phase>P</phase>
          <azimuth>79.63821411</azimuth>
          <distance>0.2654535174</distance>
          <timeResidual>-0.00801897049</timeResidual>
          <timeWeight>1.0</timeWeight>
        </arrival>
        <arrival publicID="smi:nz.org.geonet/20161107.165914.70-AIC-NZ.PREZ.10.EHZ#Origin#20161204223301.335795.66228">
          <pickID>smi:nz.org.geonet/20161107.165914.70-AIC-NZ.PREZ.10.EHZ</pickID>
          <phase>P</phase>
          <azimuth>94.43095398</azimuth>
          <distance>0.3104897141</distance>
          <timeResidual>0.02006626129</timeResidual>
          <timeWeight>1.0</timeWeight>
        </arrival>
        <arrival publicID="smi:nz.org.geonet/Pick#20161107170509.25684.24848#Origin#20161204223301.335795.66228">
          <pickID>smi:nz.org.geonet/Pick#20161107170509.25684.24848</pickID>
          <phase>S</phase>
          <azimuth>94.43095398</azimuth>
          <distance>0.3104897141</distance>
          <timeResidual>-0.1954584122</timeResidual>
          <timeWeight>1.0</timeWeight>
        </arrival>
        <arrival publicID="smi:nz.org.geonet/20161107.165915.95-AIC-NZ.DREZ.10.EHZ#Origin#20161204223301.335795.66228">
          <pickID>smi:nz.org.geonet/20161107.165915.95-AIC-NZ.DREZ.10.EHZ</pickID>
          <phase>P</phase>
          <azimuth>69.39617157</azimuth>
          <distance>0.3663482368</distance>
          <timeResidual>0.3419914246</timeResidual>
          <timeWeight>1.0</timeWeight>
        </arrival>
        <arrival publicID="smi:nz.org.geonet/Pick#20161204223148.09512.66038#Origin#20161204223301.335795.66228">
          <pickID>smi:nz.org.geonet/Pick#20161204223148.09512.66038</pickID>
          <phase>P</phase>
          <azimuth>43.69841766</azimuth>
          <distance>0.353477329</distance>
          <timeResidual>-0.1373081207</timeResidual>
          <timeWeight>1.0</timeWeight>
        </arrival>
        <arrival publicID="smi:nz.org.geonet/Pick#20161204223148.095386.66039#Origin#20161204223301.335795.66228">
          <pickID>smi:nz.org.geonet/Pick#20161204223148.095386.66039</pickID>
          <phase>S</phase>
          <azimuth>43.69841766</azimuth>
          <distance>0.353477329</distance>
          <timeResidual>-0.1648035049</timeResidual>
          <timeWeight>1.0</timeWeight>
        </arrival>
        <arrival publicID="smi:nz.org.geonet/Pick#20161204223148.095505.66040#Origin#20161204223301.335795.66228">
          <pickID>smi:nz.org.geonet/Pick#20161204223148.095505.66040</pickID>
          <phase>P</phase>
          <azimuth>123.8967133</azimuth>
          <distance>0.4790397584</distance>
          <timeResidual>-1.775265694</timeResidual>
          <timeWeight>0.0</timeWeight>
        </arrival>
        <arrival publicID="smi:nz.org.geonet/Pick#20161204223148.095635.66041#Origin#20161204223301.335795.66228">
          <pickID>smi:nz.org.geonet/Pick#20161204223148.095635.66041</pickID>
          <phase>S</phase>
          <azimuth>123.8967133</azimuth>
          <distance>0.4790397584</distance>
          <timeResidual>-1.580910683</timeResidual>
          <timeWeight>0.0</timeWeight>
        </arrival>
        <arrival publicID="smi:nz.org.geonet/20161107.165918.02-AIC-NZ.LREZ.10.EHZ#Origin#20161204223301.335795.66228">
          <pickID>smi:nz.org.geonet/20161107.165918.02-AIC-NZ.LREZ.10.EHZ</pickID>
          <phase>P</phase>
          <azimuth>106.0302582</azimuth>
          <distance>0.5179089904</distance>
          <timeResidual>-0.1183538437</timeResidual>
          <timeWeight>1.0</timeWeight>
        </arrival>
        <arrival publicID="smi:nz.org.geonet/Pick#20161107170509.256955.24849#Origin#20161204223301.335795.66228">
          <pickID>smi:nz.org.geonet/Pick#20161107170509.256955.24849</pickID>
          <phase>S</phase>
          <azimuth>106.0302582</azimuth>
          <distance>0.5179089904</distance>
          <timeResidual>-0.1480054855</timeResidual>
          <timeWeight>1.0</timeWeight>
        </arrival>
        <arrival publicID="smi:nz.org.geonet/20161107.165918.35-AIC-NZ.MHEZ.10.EHZ#Origin#20161204223301.335795.66228">
          <pickID>smi:nz.org.geonet/20161107.165918.35-AIC-NZ.MHEZ.10.EHZ</pickID>
          <phase>P</phase>
          <azimuth>61.20420837</azimuth>
          <distance>0.5003621578</distance>
          <timeResidual>0.503534317</timeResidual>
          <timeWeight>1.0</timeWeight>
        </arrival>
        <arrival publicID="smi:nz.org.geonet/20161107.165922.59-AIC-NZ.VRZ.10.HHZ#Origin#20161204223301.335795.66228">
          <pickID>smi:nz.org.geonet/20161107.165922.59-AIC-NZ.VRZ.10.HHZ</pickID>
          <phase>P</phase>
          <azimuth>76.26457977</azimuth>
          <distance>0.7997305393</distance>
          <timeResidual>-0.2644643784</timeResidual>
          <timeWeight>1.0</timeWeight>
        </arrival>
        <arrival publicID="smi:nz.org.geonet/20161107.165926.33-AIC-NZ.WAZ.10.HHZ#Origin#20161204223301.335795.66228">
          <pickID>smi:nz.org.geonet/20161107.165926.33-AIC-NZ.WAZ.10.HHZ</pickID>
          <phase>P</phase>
          <azimuth>115.0533752</azimuth>
          <distance>1.04311049</distance>
          <timeResidual>-0.5075979233</timeResidual>
          <timeWeight>1.0</timeWeight>
        </arrival>
        <arrival publicID="smi:nz.org.geonet/20161107.165928.73-AIC-NZ.HIZ.10.HHZ#Origin#20161204223301.335795.66228">
          <pickID>smi:nz.org.geonet/20161107.165928.73-AIC-NZ.HIZ.10.HHZ</pickID>
          <phase>P</phase>
          <azimuth>47.0807991</azimuth>
          <distance>1.17408824</distance>
          <timeResidual>-0.02467441559</timeResidual>
          <timeWeight>0.0</timeWeight>
        </arrival>
        <arrival publicID="smi:nz.org.geonet/Pick#20161107170509.25708.24850#Origin#20161204223301.335795.66228">
          <pickID>smi:nz.org.geonet/Pick#20161107170509.25708.24850</pickID>
          <phase>S</phase>
          <azimuth>47.0807991</azimuth>
          <distance>1.17408824</distance>
          <timeResidual>1.247885704</timeResidual>
          <timeWeight>0.0</timeWeight>
        </arrival>
        <arrival publicID="smi:nz.org.geonet/20161107.165929.55-AIC-NZ.PKVZ.10.EHZ#Origin#20161204223301.335795.66228">
          <pickID>smi:nz.org.geonet/20161107.165929.55-AIC-NZ.PKVZ.10.EHZ</pickID>
          <phase>P</phase>
          <azimuth>89.13101959</azimuth>
          <distance>1.231394649</distance>
          <timeResidual>-0.03403186798</timeResidual>
          <timeWeight>0.0</timeWeight>
        </arrival>
        <arrival publicID="smi:nz.org.geonet/Pick#20161204223148.095801.66042#Origin#20161204223301.335795.66228">
          <pickID>smi:nz.org.geonet/Pick#20161204223148.095801.66042</pickID>
          <phase>S</phase>
          <azimuth>89.13101959</azimuth>
          <distance>1.231394649</distance>
          <timeResidual>0.531619072</timeResidual>
          <timeWeight>1.0</timeWeight>
        </arrival>
        <arrival publicID="smi:nz.org.geonet/Pick#20161204223148.095941.66043#Origin#20161204223301.335795.66228">
          <pickID>smi:nz.org.geonet/Pick#20161204223148.095941.66043</pickID>
          <phase>P</phase>
          <azimuth>69.06772614</azimuth>
          <distance>1.244210482</distance>
          <timeResidual>-0.4114675522</timeResidual>
          <timeWeight>1.0</timeWeight>
        </arrival>
        <arrival publicID="smi:nz.org.geonet/Pick#20161204223148.09606.66044#Origin#20161204223301.335795.66228">
          <pickID>smi:nz.org.geonet/Pick#20161204223148.09606.66044</pickID>
          <phase>S</phase>
          <azimuth>69.06772614</azimuth>
          <distance>1.244210482</distance>
          <timeResidual>-0.0002336502075</timeResidual>
          <timeWeight>1.0</timeWeight>
        </arrival>
        <arrival publicID="smi:nz.org.geonet/Pick#20161204223148.096181.66045#Origin#20161204223301.335795.66228">
          <pickID>smi:nz.org.geonet/Pick#20161204223148.096181.66045</pickID>
          <phase>S</phase>
          <azimuth>94.91997528</azimuth>
          <distance>1.28504014</distance>
          <timeResidual>-0.7258310318</timeResidual>
          <timeWeight>1.0</timeWeight>
        </arrival>
        <arrival publicID="smi:nz.org.geonet/Pick#20161204223148.096294.66046#Origin#20161204223301.335795.66228">
          <pickID>smi:nz.org.geonet/Pick#20161204223148.096294.66046</pickID>
          <phase>P</phase>
          <azimuth>94.91997528</azimuth>
          <distance>1.28504014</distance>
          <timeResidual>-1.234902382</timeResidual>
          <timeWeight>1.0</timeWeight>
        </arrival>
        <arrival publicID="smi:nz.org.geonet/20161107.165931.36-AIC-NZ.MTVZ.10.EHZ#Origin#20161204223301.335795.66228">
          <pickID>smi:nz.org.geonet/20161107.165931.36-AIC-NZ.MTVZ.10.EHZ</pickID>
          <phase>P</phase>
          <azimuth>93.37832642</azimuth>
          <distance>1.328009486</distance>
          <timeResidual>0.379357338</timeResidual>
          <timeWeight>0.0</timeWeight>
        </arrival>
        <arrival publicID="smi:nz.org.geonet/Pick#20161204223148.096411.66047#Origin#20161204223301.335795.66228">
          <pickID>smi:nz.org.geonet/Pick#20161204223148.096411.66047</pickID>
          <phase>S</phase>
          <azimuth>93.37832642</azimuth>
          <distance>1.328009486</distance>
          <timeResidual>1.252959251</timeResidual>
          <timeWeight>1.0</timeWeight>
        </arrival>
        <arrival publicID="smi:nz.org.geonet/20161107.165930.97-AIC-NZ.TWVZ.10.EHZ#Origin#20161204223301.335795.66228">
          <pickID>smi:nz.org.geonet/20161107.165930.97-AIC-NZ.TWVZ.10.EHZ</pickID>
          <phase>P</phase>
          <azimuth>79.78488159</azimuth>
          <distance>1.327194691</distance>
          <timeResidual>0.0001707077026</timeResidual>
          <timeWeight>0.0</timeWeight>
        </arrival>
        <arrival publicID="smi:nz.org.geonet/Pick#20161204223148.096551.66048#Origin#20161204223301.335795.66228">
          <pickID>smi:nz.org.geonet/Pick#20161204223148.096551.66048</pickID>
          <phase>S</phase>
          <azimuth>79.78488159</azimuth>
          <distance>1.327194691</distance>
          <timeResidual>-0.5783700943</timeResidual>
          <timeWeight>1.0</timeWeight>
        </arrival>
        <arrival publicID="smi:nz.org.geonet/20161107.165932.36-AIC-NZ.TRVZ.10.HHZ#Origin#20161204223301.335795.66228">
          <pickID>smi:nz.org.geonet/20161107.165932.36-AIC-NZ.TRVZ.10.HHZ</pickID>
          <phase>P</phase>
          <azimuth>89.74168396</azimuth>
          <distance>1.387382865</distance>
          <timeResidual>0.5233373642</timeResidual>
          <timeWeight>0.0</timeWeight>
        </arrival>
        <arrival publicID="smi:nz.org.geonet/Pick#20161204223148.09668.66049#Origin#20161204223301.335795.66228">
          <pickID>smi:nz.org.geonet/Pick#20161204223148.09668.66049</pickID>
          <phase>S</phase>
          <azimuth>89.74168396</azimuth>
          <distance>1.387382865</distance>
          <timeResidual>0.5454778671</timeResidual>
          <timeWeight>1.0</timeWeight>
        </arrival>
        <arrival publicID="smi:nz.org.geonet/20161107.165932.34-AIC-NZ.FWVZ.10.HHZ#Origin#20161204223301.335795.66228">
          <pickID>smi:nz.org.geonet/20161107.165932.34-AIC-NZ.FWVZ.10.HHZ</pickID>
          <phase>P</phase>
          <azimuth>87.94374847</azimuth>
          <distance>1.39310813</distance>
          <timeResidual>0.4208040237</timeResidual>
          <timeWeight>0.0</timeWeight>
        </arrival>
        <arrival publicID="smi:nz.org.geonet/Pick#20161204223148.096807.66050#Origin#20161204223301.335795.66228">
          <pickID>smi:nz.org.geonet/Pick#20161204223148.096807.66050</pickID>
          <phase>S</phase>
          <azimuth>87.94374847</azimuth>
          <distance>1.39310813</distance>
          <timeResidual>-0.355553627</timeResidual>
          <timeWeight>1.0</timeWeight>
        </arrival>
        <arrival publicID="smi:nz.org.geonet/20161107.165932.78-AIC-NZ.MAVZ.10.HHZ#Origin#20161204223301.335795.66228">
          <pickID>smi:nz.org.geonet/20161107.165932.78-AIC-NZ.MAVZ.10.HHZ</pickID>
          <phase>P</phase>
          <azimuth>88.4887619</azimuth>
          <distance>1.399192333</distance>
          <timeResidual>0.7732877731</timeResidual>
          <timeWeight>0.0</timeWeight>
        </arrival>
        <arrival publicID="smi:nz.org.geonet/Pick#20161204223148.096924.66051#Origin#20161204223301.335795.66228">
          <pickID>smi:nz.org.geonet/Pick#20161204223148.096924.66051</pickID>
          <phase>S</phase>
          <azimuth>88.4887619</azimuth>
          <distance>1.399192333</distance>
          <timeResidual>-0.9517793655</timeResidual>
          <timeWeight>1.0</timeWeight>
        </arrival>
        <arrival publicID="smi:nz.org.geonet/20161107.165933.20-AIC-NZ.DRZ.10.EHZ#Origin#20161204223301.335795.66228">
          <pickID>smi:nz.org.geonet/20161107.165933.20-AIC-NZ.DRZ.10.EHZ</pickID>
          <phase>P</phase>
          <azimuth>88.79207611</azimuth>
          <distance>1.400339365</distance>
          <timeResidual>1.17680645</timeResidual>
          <timeWeight>0.0</timeWeight>
        </arrival>
        <arrival publicID="smi:nz.org.geonet/Pick#20161204223148.097036.66052#Origin#20161204223301.335795.66228">
          <pickID>smi:nz.org.geonet/Pick#20161204223148.097036.66052</pickID>
          <phase>S</phase>
          <azimuth>88.79207611</azimuth>
          <distance>1.400339365</distance>
          <timeResidual>0.460940361</timeResidual>
          <timeWeight>1.0</timeWeight>
        </arrival>
        <arrival publicID="smi:nz.org.geonet/20161107.165932.74-AIC-NZ.WHVZ.10.HHZ#Origin#20161204223301.335795.66228">
          <pickID>smi:nz.org.geonet/20161107.165932.74-AIC-NZ.WHVZ.10.HHZ</pickID>
          <phase>P</phase>
