<?xml version="1.0" encoding="UTF-8"?>
<seiscomp xmlns="http://geofon.gfz-potsdam.de/ns/seiscomp3-schema/0.10" version="0.10">
  <EventParameters>
    <pick publicID="20170811.095022.08-AIC-XX.RD06.10.HHZ">
      <time>
        <value>2017-08-11T09:50:22.08Z</value>
      </time>
      <waveformID networkCode="XX" stationCode="RD06" locationCode="10" channelCode="HHZ"/>
      <filterID>BW(4,2.5,15)</filterID>
      <methodID>AIC</methodID>
      <phaseHint>P</phaseHint>
      <evaluationMode>automatic</evaluationMode>
      <creationInfo>
        <agencyID>GFZ</agencyID>
        <author>scautopick@sc3hikto.gns.cri.nz</author>
        <creationTime>2018-05-02T04:26:45.482432Z</creationTime>
      </creationInfo>
    </pick>
    <pick publicID="20170811.095026.21-AIC-XX.RD14.10.HHZ">
      <time>
        <value>2017-08-11T09:50:26.21Z</value>
      </time>
      <waveformID networkCode="XX" stationCode="RD14" locationCode="10" channelCode="HHZ"/>
      <filterID>BW(4,2.5,15)</filterID>
      <methodID>AIC</methodID>
      <phaseHint>P</phaseHint>
      <evaluationMode>automatic</evaluationMode>
      <creationInfo>
        <agencyID>GFZ</agencyID>
        <author>scautopick@sc3hikto.gns.cri.nz</author>
        <creationTime>2018-05-02T04:26:45.484528Z</creationTime>
      </creationInfo>
    </pick>
    <pick publicID="20170811.095105.94-AIC-XX.RD06.10.HHZ">
      <time>
        <value>2017-08-11T09:51:05.94Z</value>
      </time>
      <waveformID networkCode="XX" stationCode="RD06" locationCode="10" channelCode="HHZ"/>
      <filterID>BW(4,2.5,15)</filterID>
      <methodID>AIC</methodID>
      <phaseHint>P</phaseHint>
      <evaluationMode>automatic</evaluationMode>
      <creationInfo>
        <agencyID>GFZ</agencyID>
        <author>scautopick@sc3hikto.gns.cri.nz</author>
        <creationTime>2018-05-02T04:26:45.510245Z</creationTime>
      </creationInfo>
    </pick>
    <pick publicID="20170811.095105.55-AIC-NZ.BFZ.10.HHZ">
      <time>
        <value>2017-08-11T09:51:05.558393Z</value>
      </time>
      <waveformID networkCode="NZ" stationCode="BFZ" locationCode="10" channelCode="HHZ"/>
      <filterID>BW(4,2.5,15)</filterID>
      <methodID>AIC</methodID>
      <phaseHint>P</phaseHint>
      <evaluationMode>automatic</evaluationMode>
      <creationInfo>
        <agencyID>GFZ</agencyID>
        <author>scautopick@sc3hikto.gns.cri.nz</author>
        <creationTime>2018-05-02T04:26:45.512162Z</creationTime>
      </creationInfo>
    </pick>
    <pick publicID="20170811.095115.65-AIC-NZ.MWZ.10.HHZ">
      <time>
        <value>2017-08-11T09:51:15.658389Z</value>
      </time>
      <waveformID networkCode="NZ" stationCode="MWZ" locationCode="10" channelCode="HHZ"/>
      <filterID>BW(4,2.5,15)</filterID>
      <methodID>AIC</methodID>
      <phaseHint>P</phaseHint>
      <evaluationMode>automatic</evaluationMode>
      <creationInfo>
        <agencyID>GFZ</agencyID>
        <author>scautopick@sc3hikto.gns.cri.nz</author>
        <creationTime>2018-05-02T04:26:45.516098Z</creationTime>
      </creationInfo>
    </pick>
    <pick publicID="20170811.095119.89-AIC-NZ.URZ.10.HHZ">
      <time>
        <value>2017-08-11T09:51:19.898385Z</value>
      </time>
      <waveformID networkCode="NZ" stationCode="URZ" locationCode="10" channelCode="HHZ"/>
      <filterID>BW(4,2.5,15)</filterID>
      <methodID>AIC</methodID>
      <phaseHint>P</phaseHint>
      <evaluationMode>automatic</evaluationMode>
      <creationInfo>
        <agencyID>GFZ</agencyID>
        <author>scautopick@sc3hikto.gns.cri.nz</author>
        <creationTime>2018-05-02T04:26:45.518877Z</creationTime>
      </creationInfo>
    </pick>
    <pick publicID="20170811.095124.70-AIC-XX.RD09.10.HHZ">
      <time>
        <value>2017-08-11T09:51:24.7Z</value>
      </time>
      <waveformID networkCode="XX" stationCode="RD09" locationCode="10" channelCode="HHZ"/>
      <filterID>BW(4,2.5,15)</filterID>
      <methodID>AIC</methodID>
      <phaseHint>P</phaseHint>
      <evaluationMode>automatic</evaluationMode>
      <creationInfo>
        <agencyID>GFZ</agencyID>
        <author>scautopick@sc3hikto.gns.cri.nz</author>
        <creationTime>2018-05-02T04:26:45.522608Z</creationTime>
      </creationInfo>
    </pick>
    <pick publicID="20170811.095126.80-AIC-XX.RD05.10.HHZ">
      <time>
        <value>2017-08-11T09:51:26.8Z</value>
      </time>
      <waveformID networkCode="XX" stationCode="RD05" locationCode="10" channelCode="HHZ"/>
      <filterID>BW(4,2.5,15)</filterID>
      <methodID>AIC</methodID>
      <phaseHint>P</phaseHint>
      <evaluationMode>automatic</evaluationMode>
      <creationInfo>
        <agencyID>GFZ</agencyID>
        <author>scautopick@sc3hikto.gns.cri.nz</author>
        <creationTime>2018-05-02T04:26:45.528156Z</creationTime>
      </creationInfo>
    </pick>
    <pick publicID="20170811.095128.69-AIC-NZ.RAHZ.10.EHZ">
      <time>
        <value>2017-08-11T09:51:28.698393Z</value>
      </time>
      <waveformID networkCode="NZ" stationCode="RAHZ" locationCode="10" channelCode="EHZ"/>
      <filterID>BW(4,2.5,15)</filterID>
      <methodID>AIC</methodID>
      <phaseHint>P</phaseHint>
      <evaluationMode>automatic</evaluationMode>
      <creationInfo>
        <agencyID>GFZ</agencyID>
        <author>scautopick@sc3hikto.gns.cri.nz</author>
        <creationTime>2018-05-02T04:26:45.530425Z</creationTime>
      </creationInfo>
    </pick>
    <pick publicID="20170811.095209.46-AIC-XX.RD06.10.HHZ">
      <time>
        <value>2017-08-11T09:52:09.46Z</value>
      </time>
      <waveformID networkCode="XX" stationCode="RD06" locationCode="10" channelCode="HHZ"/>
      <filterID>BW(4,2.5,15)</filterID>
      <methodID>AIC</methodID>
      <phaseHint>P</phaseHint>
      <evaluationMode>automatic</evaluationMode>
      <creationInfo>
        <agencyID>GFZ</agencyID>
        <author>scautopick@sc3hikto.gns.cri.nz</author>
        <creationTime>2018-05-02T04:26:45.560819Z</creationTime>
      </creationInfo>
    </pick>
    <pick publicID="20170811.095210.94-AIC-NZ.BKZ.10.HHZ">
      <time>
        <value>2017-08-11T09:52:10.948393Z</value>
      </time>
      <waveformID networkCode="NZ" stationCode="BKZ" locationCode="10" channelCode="HHZ"/>
      <filterID>BW(4,2.5,15)</filterID>
      <methodID>AIC</methodID>
      <phaseHint>P</phaseHint>
      <evaluationMode>automatic</evaluationMode>
      <creationInfo>
        <agencyID>GFZ</agencyID>
        <author>scautopick@sc3hikto.gns.cri.nz</author>
        <creationTime>2018-05-02T04:26:45.564482Z</creationTime>
      </creationInfo>
    </pick>
    <pick publicID="20170811.095222.76-AIC-XX.RD01.10.HHZ">
      <time>
        <value>2017-08-11T09:52:22.76Z</value>
      </time>
      <waveformID networkCode="XX" stationCode="RD01" locationCode="10" channelCode="HHZ"/>
      <filterID>BW(4,2.5,15)</filterID>
      <methodID>AIC</methodID>
      <phaseHint>P</phaseHint>
      <evaluationMode>automatic</evaluationMode>
      <creationInfo>
        <agencyID>GFZ</agencyID>
        <author>scautopick@sc3hikto.gns.cri.nz</author>
        <creationTime>2018-05-02T04:26:45.569436Z</creationTime>
      </creationInfo>
    </pick>
    <pick publicID="20170811.095253.09-AIC-NZ.NMHZ.10.EHZ">
      <time>
        <value>2017-08-11T09:52:53.09313Z</value>
      </time>
      <waveformID networkCode="NZ" stationCode="NMHZ" locationCode="10" channelCode="EHZ"/>
      <filterID>BW(4,2.5,15)</filterID>
      <methodID>AIC</methodID>
      <phaseHint>P</phaseHint>
      <evaluationMode>automatic</evaluationMode>
      <creationInfo>
        <agencyID>GFZ</agencyID>
        <author>scautopick@sc3hikto.gns.cri.nz</author>
        <creationTime>2018-05-02T04:26:45.590467Z</creationTime>
      </creationInfo>
    </pick>
    <pick publicID="20170811.095323.24-AIC-XX.RD09.10.HHZ">
      <time>
        <value>2017-08-11T09:53:23.24Z</value>
      </time>
      <waveformID networkCode="XX" stationCode="RD09" locationCode="10" channelCode="HHZ"/>
      <filterID>BW(4,2.5,15)</filterID>
      <methodID>AIC</methodID>
      <phaseHint>P</phaseHint>
      <evaluationMode>automatic</evaluationMode>
      <creationInfo>
        <agencyID>GFZ</agencyID>
        <author>scautopick@sc3hikto.gns.cri.nz</author>
        <creationTime>2018-05-02T04:26:45.633361Z</creationTime>
      </creationInfo>
    </pick>
    <pick publicID="20170811.095404.51-AIC-XX.RD07.10.HHZ">
      <time>
        <value>2017-08-11T09:54:04.51Z</value>
      </time>
      <waveformID networkCode="XX" stationCode="RD07" locationCode="10" channelCode="HHZ"/>
      <filterID>BW(4,2.5,15)</filterID>
      <methodID>AIC</methodID>
      <phaseHint>P</phaseHint>
      <evaluationMode>automatic</evaluationMode>
      <creationInfo>
        <agencyID>GFZ</agencyID>
        <author>scautopick@sc3hikto.gns.cri.nz</author>
        <creationTime>2018-05-02T04:26:45.656492Z</creationTime>
      </creationInfo>
    </pick>
    <pick publicID="20170811.095410.39-AIC-NZ.MRZ.10.HHZ">
      <time>
        <value>2017-08-11T09:54:10.398393Z</value>
      </time>
      <waveformID networkCode="NZ" stationCode="MRZ" locationCode="10" channelCode="HHZ"/>
      <filterID>BW(4,2.5,15)</filterID>
      <methodID>AIC</methodID>
      <phaseHint>P</phaseHint>
      <evaluationMode>automatic</evaluationMode>
      <creationInfo>
        <agencyID>GFZ</agencyID>
        <author>scautopick@sc3hikto.gns.cri.nz</author>
        <creationTime>2018-05-02T04:26:45.657871Z</creationTime>
      </creationInfo>
    </pick>
    <pick publicID="20170811.095408.30-AIC-XX.RD01.10.HHZ">
      <time>
        <value>2017-08-11T09:54:08.3Z</value>
      </time>
      <waveformID networkCode="XX" stationCode="RD01" locationCode="10" channelCode="HHZ"/>
      <filterID>BW(4,2.5,15)</filterID>
      <methodID>AIC</methodID>
      <phaseHint>P</phaseHint>
      <evaluationMode>automatic</evaluationMode>
      <creationInfo>
        <agencyID>GFZ</agencyID>
        <author>scautopick@sc3hikto.gns.cri.nz</author>
        <creationTime>2018-05-02T04:26:45.660825Z</creationTime>
      </creationInfo>
    </pick>
    <pick publicID="20170811.095411.54-AIC-NZ.BFZ.10.HHZ">
      <time>
        <value>2017-08-11T09:54:11.548393Z</value>
      </time>
      <waveformID networkCode="NZ" stationCode="BFZ" locationCode="10" channelCode="HHZ"/>
      <filterID>BW(4,2.5,15)</filterID>
      <methodID>AIC</methodID>
      <phaseHint>P</phaseHint>
      <evaluationMode>automatic</evaluationMode>
      <creationInfo>
        <agencyID>GFZ</agencyID>
        <author>scautopick@sc3hikto.gns.cri.nz</author>
        <creationTime>2018-05-02T04:26:45.671908Z</creationTime>
      </creationInfo>
    </pick>
    <pick publicID="20170811.095415.53-AIC-NZ.TSZ.10.HHZ">
      <time>
        <value>2017-08-11T09:54:15.53313Z</value>
      </time>
      <waveformID networkCode="NZ" stationCode="TSZ" locationCode="10" channelCode="HHZ"/>
      <filterID>BW(4,2.5,15)</filterID>
      <methodID>AIC</methodID>
      <phaseHint>P</phaseHint>
      <evaluationMode>automatic</evaluationMode>
      <creationInfo>
        <agencyID>GFZ</agencyID>
        <author>scautopick@sc3hikto.gns.cri.nz</author>
        <creationTime>2018-05-02T04:26:45.676015Z</creationTime>
      </creationInfo>
    </pick>
    <pick publicID="20170811.095515.25-AIC-NZ.HAZ.10.HHZ">
      <time>
        <value>2017-08-11T09:55:15.258396Z</value>
      </time>
      <waveformID networkCode="NZ" stationCode="HAZ" locationCode="10" channelCode="HHZ"/>
      <filterID>BW(4,2.5,15)</filterID>
      <methodID>AIC</methodID>
      <phaseHint>P</phaseHint>
      <evaluationMode>automatic</evaluationMode>
      <creationInfo>
        <agencyID>GFZ</agencyID>
        <author>scautopick@sc3hikto.gns.cri.nz</author>
        <creationTime>2018-05-02T04:26:45.704858Z</creationTime>
      </creationInfo>
    </pick>
    <pick publicID="20170811.095524.44-AIC-NZ.MWZ.10.HHZ">
      <time>
        <value>2017-08-11T09:55:24.448389Z</value>
      </time>
      <waveformID networkCode="NZ" stationCode="MWZ" locationCode="10" channelCode="HHZ"/>
      <filterID>BW(4,2.5,15)</filterID>
      <methodID>AIC</methodID>
      <phaseHint>P</phaseHint>
      <evaluationMode>automatic</evaluationMode>
      <creationInfo>
        <agencyID>GFZ</agencyID>
        <author>scautopick@sc3hikto.gns.cri.nz</author>
        <creationTime>2018-05-02T04:26:45.708162Z</creationTime>
      </creationInfo>
    </pick>
    <pick publicID="20170811.095533.21-AIC-XX.RD06.10.HHZ">
      <time>
        <value>2017-08-11T09:55:33.21Z</value>
      </time>
      <waveformID networkCode="XX" stationCode="RD06" locationCode="10" channelCode="HHZ"/>
      <filterID>BW(4,2.5,15)</filterID>
      <methodID>AIC</methodID>
      <phaseHint>P</phaseHint>
      <evaluationMode>automatic</evaluationMode>
      <creationInfo>
        <agencyID>GFZ</agencyID>
        <author>scautopick@sc3hikto.gns.cri.nz</author>
        <creationTime>2018-05-02T04:26:45.720715Z</creationTime>
      </creationInfo>
    </pick>
    <pick publicID="20170811.095535.08-AIC-XX.RD13.10.HHZ">
      <time>
        <value>2017-08-11T09:55:35.08Z</value>
      </time>
      <waveformID networkCode="XX" stationCode="RD13" locationCode="10" channelCode="HHZ"/>
      <filterID>BW(4,2.5,15)</filterID>
      <methodID>AIC</methodID>
      <phaseHint>P</phaseHint>
      <evaluationMode>automatic</evaluationMode>
      <creationInfo>
        <agencyID>GFZ</agencyID>
        <author>scautopick@sc3hikto.gns.cri.nz</author>
        <creationTime>2018-05-02T04:26:45.7222Z</creationTime>
      </creationInfo>
    </pick>
    <pick publicID="20170811.095623.18-AIC-XX.RD06.10.HHZ">
      <time>
        <value>2017-08-11T09:56:23.18Z</value>
      </time>
      <waveformID networkCode="XX" stationCode="RD06" locationCode="10" channelCode="HHZ"/>
      <filterID>BW(4,2.5,15)</filterID>
      <methodID>AIC</methodID>
      <phaseHint>P</phaseHint>
      <evaluationMode>automatic</evaluationMode>
      <creationInfo>
        <agencyID>GFZ</agencyID>
        <author>scautopick@sc3hikto.gns.cri.nz</author>
        <creationTime>2018-05-02T04:26:45.746109Z</creationTime>
      </creationInfo>
    </pick>
    <pick publicID="20170811.095628.96-AIC-NZ.BKZ.10.HHZ">
      <time>
        <value>2017-08-11T09:56:28.968393Z</value>
      </time>
      <waveformID networkCode="NZ" stationCode="BKZ" locationCode="10" channelCode="HHZ"/>
      <filterID>BW(4,2.5,15)</filterID>
      <methodID>AIC</methodID>
      <phaseHint>P</phaseHint>
      <evaluationMode>automatic</evaluationMode>
      <creationInfo>
        <agencyID>GFZ</agencyID>
        <author>scautopick@sc3hikto.gns.cri.nz</author>
        <creationTime>2018-05-02T04:26:45.755902Z</creationTime>
      </creationInfo>
    </pick>
    <pick publicID="20170811.095641.01-AIC-XX.RD14.10.HHZ">
      <time>
        <value>2017-08-11T09:56:41.01Z</value>
      </time>
      <waveformID networkCode="XX" stationCode="RD14" locationCode="10" channelCode="HHZ"/>
      <filterID>BW(4,2.5,15)</filterID>
      <methodID>AIC</methodID>
      <phaseHint>P</phaseHint>
      <evaluationMode>automatic</evaluationMode>
      <creationInfo>
        <agencyID>GFZ</agencyID>
        <author>scautopick@sc3hikto.gns.cri.nz</author>
        <creationTime>2018-05-02T04:26:45.761999Z</creationTime>
      </creationInfo>
    </pick>
    <pick publicID="20170811.095646.58-AIC-XX.RD13.10.HHZ">
      <time>
        <value>2017-08-11T09:56:46.58Z</value>
      </time>
      <waveformID networkCode="XX" stationCode="RD13" locationCode="10" channelCode="HHZ"/>
      <filterID>BW(4,2.5,15)</filterID>
      <methodID>AIC</methodID>
      <phaseHint>P</phaseHint>
      <evaluationMode>automatic</evaluationMode>
      <creationInfo>
        <agencyID>GFZ</agencyID>
        <author>scautopick@sc3hikto.gns.cri.nz</author>
        <creationTime>2018-05-02T04:26:45.765424Z</creationTime>
      </creationInfo>
    </pick>
    <pick publicID="20170811.095658.88-AIC-XX.RD02.10.HHZ">
      <time>
        <value>2017-08-11T09:56:58.88Z</value>
      </time>
      <waveformID networkCode="XX" stationCode="RD02" locationCode="10" channelCode="HHZ"/>
      <filterID>BW(4,2.5,15)</filterID>
      <methodID>AIC</methodID>
      <phaseHint>P</phaseHint>
      <evaluationMode>automatic</evaluationMode>
      <creationInfo>
        <agencyID>GFZ</agencyID>
        <author>scautopick@sc3hikto.gns.cri.nz</author>
        <creationTime>2018-05-02T04:26:45.771746Z</creationTime>
      </creationInfo>
    </pick>
    <pick publicID="20170811.095707.91-AIC-NZ.ARHZ.10.EHZ">
      <time>
        <value>2017-08-11T09:57:07.918385Z</value>
      </time>
      <waveformID networkCode="NZ" stationCode="ARHZ" locationCode="10" channelCode="EHZ"/>
      <filterID>BW(4,2.5,15)</filterID>
      <methodID>AIC</methodID>
      <phaseHint>P</phaseHint>
      <evaluationMode>automatic</evaluationMode>
      <creationInfo>
        <agencyID>GFZ</agencyID>
        <author>scautopick@sc3hikto.gns.cri.nz</author>
        <creationTime>2018-05-02T04:26:45.775212Z</creationTime>
      </creationInfo>
    </pick>
    <pick publicID="20170811.095751.27-AIC-XX.RD14.10.HHZ">
      <time>
        <value>2017-08-11T09:57:51.27Z</value>
      </time>
      <waveformID networkCode="XX" stationCode="RD14" locationCode="10" channelCode="HHZ"/>
      <filterID>BW(4,2.5,15)</filterID>
      <methodID>AIC</methodID>
      <phaseHint>P</phaseHint>
      <evaluationMode>automatic</evaluationMode>
      <creationInfo>
        <agencyID>GFZ</agencyID>
        <author>scautopick@sc3hikto.gns.cri.nz</author>
        <creationTime>2018-05-02T04:26:45.806715Z</creationTime>
      </creationInfo>
    </pick>
    <pick publicID="20170811.095840.60-AIC-XX.RD13.10.HHZ">
      <time>
        <value>2017-08-11T09:58:40.6Z</value>
      </time>
      <waveformID networkCode="XX" stationCode="RD13" locationCode="10" channelCode="HHZ"/>
      <filterID>BW(4,2.5,15)</filterID>
      <methodID>AIC</methodID>
      <phaseHint>P</phaseHint>
      <evaluationMode>automatic</evaluationMode>
      <creationInfo>
        <agencyID>GFZ</agencyID>
        <author>scautopick@sc3hikto.gns.cri.nz</author>
        <creationTime>2018-05-02T04:26:45.840063Z</creationTime>
      </creationInfo>
    </pick>
    <pick publicID="20170811.095829.57-AIC-XX.RD14.10.HHZ">
      <time>
        <value>2017-08-11T09:58:29.57Z</value>
      </time>
      <waveformID networkCode="XX" stationCode="RD14" locationCode="10" channelCode="HHZ"/>
      <filterID>BW(4,2.5,15)</filterID>
      <methodID>AIC</methodID>
      <phaseHint>P</phaseHint>
      <evaluationMode>automatic</evaluationMode>
      <creationInfo>
        <agencyID>GFZ</agencyID>
        <author>scautopick@sc3hikto.gns.cri.nz</author>
        <creationTime>2018-05-02T04:26:45.842229Z</creationTime>
      </creationInfo>
    </pick>
    <pick publicID="20170811.095846.94-AIC-XX.RD02.10.HHZ">
      <time>
        <value>2017-08-11T09:58:46.94Z</value>
      </time>
      <waveformID networkCode="XX" stationCode="RD02" locationCode="10" channelCode="HHZ"/>
      <filterID>BW(4,2.5,15)</filterID>
      <methodID>AIC</methodID>
      <phaseHint>P</phaseHint>
      <evaluationMode>automatic</evaluationMode>
      <creationInfo>
        <agencyID>GFZ</agencyID>
        <author>scautopick@sc3hikto.gns.cri.nz</author>
        <creationTime>2018-05-02T04:26:45.843874Z</creationTime>
      </creationInfo>
    </pick>
    <pick publicID="20170811.095901.52-AIC-XX.RD06.10.HHZ">
      <time>
        <value>2017-08-11T09:59:01.52Z</value>
      </time>
      <waveformID networkCode="XX" stationCode="RD06" locationCode="10" channelCode="HHZ"/>
      <filterID>BW(4,2.5,15)</filterID>
      <methodID>AIC</methodID>
      <phaseHint>P</phaseHint>
      <evaluationMode>automatic</evaluationMode>
      <creationInfo>
        <agencyID>GFZ</agencyID>
        <author>scautopick@sc3hikto.gns.cri.nz</author>
